[{"model": "geo.country", "pk": 1, "fields": {"iso_code": "AF", "iso_code3": "AFG", "name_ru": "\u0410\u0444\u0433\u0430\u043d\u0438\u0441\u0442\u0430\u043d", "name_uz": "Afg'oniston", "lat": null, "lng": null}}, {"model": "geo.country", "pk": 2, "fields": {"iso_code": "AX", "iso_code3": "ALA", "name_ru": "\u0410\u043b\u0430\u043d\u0434\u0441\u043a\u0438\u0435 \u043e\u0441\u0442\u0440\u043e\u0432\u0430", "name_uz": "Aland orollari", "lat": null, "lng": null}}, {"model": "geo.country", "pk": 3, "fields": {"iso_code": "AL", "iso_code3": "ALB", "name_ru": "\u0410\u043b\u0431\u0430\u043d\u0438\u044f", "name_uz": "Albaniya", "lat": null, "lng": null}}, {"model": "geo.country", "pk": 4, "fields": {"iso_code": "DZ", "iso_code3": "DZA", "name_ru": "\u0410\u043b\u0436\u0438\u0440", "name_uz": "Jazoir", "lat": null, "lng": null}}, {"model": "geo.country", "pk": 5, "fields": {"iso_code": "AS", "iso_code3": "ASM", "name_ru": "\u0410\u043c\u0435\u0440\u0438\u043a\u0430\u043d\u0441\u043a\u043e\u0435 \u0421\u0430\u043c\u043e\u0430", "name_uz": "Amerika Samoasi", "lat": null, "lng": null}}, {"model": "geo.country", "pk": 6, "fields": {"iso_code": "AD", "iso_code3": "AND", "name_ru": "\u0410\u043d\u0434\u043e\u0440\u0440\u0430", "name_uz": "Andorra", "lat": null, "lng": null}}, {"model": "geo.country", "pk": 7, "fields": {"iso_code": "AO", "iso_code3": "AGO", "name_ru": "\u0410\u043d\u0433\u043e\u043b\u0430", "name_uz": "Angola", "lat": null, "lng": null}}, {"model": "geo.country", "pk": 8, "fields": {"iso_code": "AI", "iso_code3": "AIA", "name_ru": "\u0410\u043d\u0433\u0438\u043b\u044c\u044f", "name_uz": "Angilya", "lat": null, "lng": null}}, {"model": "geo.country", "pk": 9, "fields": {"iso_code": "AQ", "iso_code3": "ATA", "name_ru": "\u0410\u043d\u0442\u0430\u0440\u043a\u0442\u0438\u0434\u0430", "name_uz": "Antarktida", "lat": null, "lng": null}}, {"model": "geo.country", "pk": 10, "fields": {"iso_code": "AG", "iso_code3": "ATG", "name_ru": "\u0410\u043d\u0442\u0438\u0433\u0443\u0430 \u0438 \u0411\u0430\u0440\u0431\u0443\u0434\u0430", "name_uz": "Antigua va Barbuda", "lat": null, "lng": null}}, {"model": "geo.country", "pk": 11, "fields": {"iso_code": "AR", "iso_code3": "ARG", "name_ru": "\u0410\u0440\u0433\u0435\u043d\u0442\u0438\u043d\u0430", "name_uz": "Argentina", "lat": null, "lng": null}}, {"model": "geo.country", "pk": 12, "fields": {"iso_code": "AM", "iso_code3": "ARM", "name_ru": "\u0410\u0440\u043c\u0435\u043d\u0438\u044f", "name_uz": "Armaniston", "lat": null, "lng": null}}, {"model": "geo.country", "pk": 13, "fields": {"iso_code": "AW", "iso_code3": "ABW", "name_ru": "\u0410\u0440\u0443\u0431\u0430", "name_uz": "Aruba", "lat": null, "lng": null}}, {"model": "geo.country", "pk": 14, "fields": {"iso_code": "AU", "iso_code3": "AUS", "name_ru": "\u0410\u0432\u0441\u0442\u0440\u0430\u043b\u0438\u044f", "name_uz": "Avstraliya", "lat": null, "lng": null}}, {"model": "geo.country", "pk": 15, "fields": {"iso_code": "AT", "iso_code3": "AUT", "name_ru": "\u0410\u0432\u0441\u0442\u0440\u0438\u044f", "name_uz": "Avstriya", "lat": null, "lng": null}}, {"model": "geo.country", "pk": 16, "fields": {"iso_code": "AZ", "iso_code3": "AZE", "name_ru": "\u0410\u0437\u0435\u0440\u0431\u0430\u0439\u0434\u0436\u0430\u043d", "name_uz": "Ozarbayjon", "lat": null, "lng": null}}, {"model": "geo.country", "pk": 17, "fields": {"iso_code": "BS", "iso_code3": "BHS", "name_ru": "\u0411\u0430\u0433\u0430\u043c\u044b", "name_uz": "Bahamas", "lat": null, "lng": null}}, {"model": "geo.country", "pk": 18, "fields": {"iso_code": "BH", "iso_code3": "BHR", "name_ru": "\u0411\u0430\u0445\u0440\u0435\u0439\u043d", "name_uz": "Bahrayn", "lat": null, "lng": null}}, {"model": "geo.country", "pk": 19, "fields": {"iso_code": "BD", "iso_code3": "BGD", "name_ru": "\u0411\u0430\u043d\u0433\u043b\u0430\u0434\u0435\u0448", "name_uz": "Bangladesh", "lat": null, "lng": null}}, {"model": "geo.country", "pk": 20, "fields": {"iso_code": "BB", "iso_code3": "BRB", "name_ru": "\u0411\u0430\u0440\u0431\u0430\u0434\u043e\u0441", "name_uz": "Barbados", "lat": null, "lng": null}}, {"model": "geo.country", "pk": 21, "fields": {"iso_code": "BY", "iso_code3": "BLR", "name_ru": "\u0411\u0435\u043b\u043e\u0440\u0443\u0441\u0441\u0438\u044f", "name_uz": "Belarus", "lat": null, "lng": null}}, {"model": "geo.country", "pk": 22, "fields": {"iso_code": "BE", "iso_code3": "BEL", "name_ru": "\u0411\u0435\u043b\u044c\u0433\u0438\u044f", "name_uz": "Belgiya", "lat": null, "lng": null}}, {"model": "geo.country", "pk": 23, "fields": {"iso_code": "BZ", "iso_code3": "BLZ", "name_ru": "\u0411\u0435\u043b\u0438\u0437", "name_uz": "Beliz", "lat": null, "lng": null}}, {"model": "geo.country", "pk": 24, "fields": {"iso_code": "BJ", "iso_code3": "BEN", "name_ru": "\u0411\u0435\u043d\u0438\u043d", "name_uz": "Benin", "lat": null, "lng": null}}, {"model": "geo.country", "pk": 25, "fields": {"iso_code": "BM", "iso_code3": "BMU", "name_ru": "\u0411\u0435\u0440\u043c\u0443\u0434\u044b", "name_uz": "Bermuda", "lat": null, "lng": null}}, {"model": "geo.country", "pk": 26, "fields": {"iso_code": "BT", "iso_code3": "BTN", "name_ru": "\u0411\u0443\u0442\u0430\u043d", "name_uz": "Butan", "lat": null, "lng": null}}, {"model": "geo.country", "pk": 27, "fields": {"iso_code": "BO", "iso_code3": "BOL", "name_ru": "\u0411\u043e\u043b\u0438\u0432\u0438\u044f", "name_uz": "Boliviya", "lat": null, "lng": null}}, {"model": "geo.country", "pk": 28, "fields": {"iso_code": "BQ", "iso_code3": "BES", "name_ru": "\u0411\u043e\u043d\u0430\u0439\u0440\u0435, \u0421\u0430\u0431\u0430 \u0438 \u0421\u0438\u043d\u0442-\u042d\u0441\u0442\u0430\u0442\u0438\u0443\u0441", "name_uz": "Bonaire, Saba va Sint-Eustatius", "lat": null, "lng": null}}, {"model": "geo.country", "pk": 29, "fields": {"iso_code": "BA", "iso_code3": "BIH", "name_ru": "\u0411\u043e\u0441\u043d\u0438\u044f \u0438 \u0413\u0435\u0440\u0446\u0435\u0433\u043e\u0432\u0438\u043d\u0430", "name_uz": "Bosniya va Gertsegovina", "lat": null, "lng": null}}, {"model": "geo.country", "pk": 30, "fields": {"iso_code": "BW", "iso_code3": "BWA", "name_ru": "\u0411\u043e\u0442\u0441\u0432\u0430\u043d\u0430", "name_uz": "Botswana", "lat": null, "lng": null}}, {"model": "geo.country", "pk": 31, "fields": {"iso_code": "BV", "iso_code3": "BVT", "name_ru": "\u041e\u0441\u0442\u0440\u043e\u0432 \u0411\u0443\u0432\u0435", "name_uz": "Buve Oroli", "lat": null, "lng": null}}, {"model": "geo.country", "pk": 32, "fields": {"iso_code": "BR", "iso_code3": "BRA", "name_ru": "\u0411\u0440\u0430\u0437\u0438\u043b\u0438\u044f", "name_uz": "Braziliya", "lat": null, "lng": null}}, {"model": "geo.country", "pk": 33, "fields": {"iso_code": "IO", "iso_code3": "IOT", "name_ru": "\u0411\u0440\u0438\u0442\u0430\u043d\u0441\u043a\u0430\u044f \u0442\u0435\u0440\u0440\u0438\u0442\u043e\u0440\u0438\u044f \u0432 \u0418\u043d\u0434\u0438\u0439\u0441\u043a\u043e\u043c \u043e\u043a\u0435\u0430\u043d\u0435", "name_uz": "Hind okeanidagi Britaniya hududi", "lat": null, "lng": null}}, {"model": "geo.country", "pk": 34, "fields": {"iso_code": "BN", "iso_code3": "BRN", "name_ru": "\u0411\u0440\u0443\u043d\u0435\u0439", "name_uz": "Bruney", "lat": null, "lng": null}}, {"model": "geo.country", "pk": 35, "fields": {"iso_code": "BG", "iso_code3": "BGR", "name_ru": "\u0411\u043e\u043b\u0433\u0430\u0440\u0438\u044f", "name_uz": "Bolgariya", "lat": null, "lng": null}}, {"model": "geo.country", "pk": 36, "fields": {"iso_code": "BF", "iso_code3": "BFA", "name_ru": "\u0411\u0443\u0440\u043a\u0438\u043d\u0430-\u0424\u0430\u0441\u043e", "name_uz": "Burkina Faso", "lat": null, "lng": null}}, {"model": "geo.country", "pk": 37, "fields": {"iso_code": "BI", "iso_code3": "BDI", "name_ru": "\u0411\u0443\u0440\u0443\u043d\u0434\u0438", "name_uz": "Burundi", "lat": null, "lng": null}}, {"model": "geo.country", "pk": 38, "fields": {"iso_code": "KH", "iso_code3": "KHM", "name_ru": "\u041a\u0430\u043c\u0431\u043e\u0434\u0436\u0430", "name_uz": "Kambodja", "lat": null, "lng": null}}, {"model": "geo.country", "pk": 39, "fields": {"iso_code": "CM", "iso_code3": "CMR", "name_ru": "\u041a\u0430\u043c\u0435\u0440\u0443\u043d", "name_uz": "Kamerun", "lat": null, "lng": null}}, {"model": "geo.country", "pk": 40, "fields": {"iso_code": "CA", "iso_code3": "CAN", "name_ru": "\u041a\u0430\u043d\u0430\u0434\u0430", "name_uz": "Kanada", "lat": null, "lng": null}}, {"model": "geo.country", "pk": 41, "fields": {"iso_code": "CV", "iso_code3": "CPV", "name_ru": "\u041a\u0430\u0431\u043e-\u0412\u0435\u0440\u0434\u0435", "name_uz": "Cape Verde", "lat": null, "lng": null}}, {"model": "geo.country", "pk": 42, "fields": {"iso_code": "KY", "iso_code3": "CYM", "name_ru": "\u041a\u0430\u0439\u043c\u0430\u043d\u043e\u0432\u044b \u041e\u0441\u0442\u0440\u043e\u0432\u0430", "name_uz": "Kayman orollari", "lat": null, "lng": null}}, {"model": "geo.country", "pk": 43, "fields": {"iso_code": "CF", "iso_code3": "CAF", "name_ru": "\u0426\u0435\u043d\u0442\u0440\u0430\u043b\u044c\u043d\u043e-\u0410\u0444\u0440\u0438\u043a\u0430\u043d\u0441\u043a\u0430\u044f \u0420\u0435\u0441\u043f\u0443\u0431\u043b\u0438\u043a\u0430", "name_uz": "Markaziy Afrika Respublikasi", "lat": null, "lng": null}}, {"model": "geo.country", "pk": 44, "fields": {"iso_code": "TD", "iso_code3": "TCD", "name_ru": "\u0427\u0430\u0434", "name_uz": "Chad", "lat": null, "lng": null}}, {"model": "geo.country", "pk": 45, "fields": {"iso_code": "CL", "iso_code3": "CHL", "name_ru": "\u0427\u0438\u043b\u0438", "name_uz": "Chili", "lat": null, "lng": null}}, {"model": "geo.country", "pk": 46, "fields": {"iso_code": "CN", "iso_code3": "CHN", "name_ru": "\u041a\u0438\u0442\u0430\u0439", "name_uz": "Xitoy", "lat": null, "lng": null}}, {"model": "geo.country", "pk": 47, "fields": {"iso_code": "CX", "iso_code3": "CXR", "name_ru": "\u041e\u0441\u0442\u0440\u043e\u0432 \u0420\u043e\u0436\u0434\u0435\u0441\u0442\u0432\u0430", "name_uz": "Rojdestvo oroli", "lat": null, "lng": null}}, {"model": "geo.country", "pk": 48, "fields": {"iso_code": "CC", "iso_code3": "CCK", "name_ru": "\u041a\u043e\u043a\u043e\u0441\u043e\u0432\u044b\u0435 (\u041a\u0438\u043b\u0438\u043d\u0433) \u043e\u0441\u0442\u0440\u043e\u0432\u0430", "name_uz": "Cocos (Keeling) orollari", "lat": null, "lng": null}}, {"model": "geo.country", "pk": 49, "fields": {"iso_code": "CO", "iso_code3": "COL", "name_ru": "\u041a\u043e\u043b\u0443\u043c\u0431\u0438\u044f", "name_uz": "Kolumbiya", "lat": null, "lng": null}}, {"model": "geo.country", "pk": 50, "fields": {"iso_code": "KM", "iso_code3": "COM", "name_ru": "\u041a\u043e\u043c\u043e\u0440\u0441\u043a\u0438\u0435 \u043e\u0441\u0442\u0440\u043e\u0432\u0430", "name_uz": "Komorlar", "lat": null, "lng": null}}, {"model": "geo.country", "pk": 51, "fields": {"iso_code": "CG", "iso_code3": "COG", "name_ru": "\u041a\u043e\u043d\u0433\u043e", "name_uz": "Kongo", "lat": null, "lng": null}}, {"model": "geo.country", "pk": 52, "fields": {"iso_code": "CK", "iso_code3": "COK", "name_ru": "\u041e\u0441\u0442\u0440\u043e\u0432\u0430 \u041a\u0443\u043a\u0430", "name_uz": "Kuk orollari", "lat": null, "lng": null}}, {"model": "geo.country", "pk": 53, "fields": {"iso_code": "CR", "iso_code3": "CRI", "name_ru": "\u041a\u043e\u0441\u0442\u0430-\u0420\u0438\u043a\u0430", "name_uz": "Kosta-Rika", "lat": null, "lng": null}}, {"model": "geo.country", "pk": 54, "fields": {"iso_code": "CI", "iso_code3": "CIV", "name_ru": "\u041a\u043e\u0442-\u0434'\u0418\u0432\u0443\u0430\u0440", "name_uz": "Cote d'Ivoire", "lat": null, "lng": null}}, {"model": "geo.country", "pk": 55, "fields": {"iso_code": "HR", "iso_code3": "HRV", "name_ru": "\u0425\u043e\u0440\u0432\u0430\u0442\u0438\u044f", "name_uz": "Xorvatiye", "lat": null, "lng": null}}, {"model": "geo.country", "pk": 56, "fields": {"iso_code": "CU", "iso_code3": "CUB", "name_ru": "\u041a\u0443\u0431\u0430", "name_uz": "Kuba", "lat": null, "lng": null}}, {"model": "geo.country", "pk": 57, "fields": {"iso_code": "CW", "iso_code3": "CUW", "name_ru": "\u041a\u044e\u0440\u0430\u0441\u0430\u043e", "name_uz": "Curacao", "lat": null, "lng": null}}, {"model": "geo.country", "pk": 58, "fields": {"iso_code": "CY", "iso_code3": "CYP", "name_ru": "\u041a\u0438\u043f\u0440", "name_uz": "Kipr", "lat": null, "lng": null}}, {"model": "geo.country", "pk": 59, "fields": {"iso_code": "CZ", "iso_code3": "CZE", "name_ru": "\u0427\u0435\u0445\u0438\u044f", "name_uz": "Chexiya", "lat": null, "lng": null}}, {"model": "geo.country", "pk": 61, "fields": {"iso_code": "DK", "iso_code3": "DNK", "name_ru": "\u0414\u0430\u043d\u0438\u044f", "name_uz": "Daniya", "lat": null, "lng": null}}, {"model": "geo.country", "pk": 62, "fields": {"iso_code": "DJ", "iso_code3": "DJI", "name_ru": "\u0414\u0436\u0438\u0431\u0443\u0442\u0438", "name_uz": "Djibouti", "lat": null, "lng": null}}, {"model": "geo.country", "pk": 63, "fields": {"iso_code": "DM", "iso_code3": "DMA", "name_ru": "\u0414\u043e\u043c\u0438\u043d\u0438\u043a\u0430", "name_uz": "Dominika", "lat": null, "lng": null}}, {"model": "geo.country", "pk": 64, "fields": {"iso_code": "DO", "iso_code3": "DOM", "name_ru": "\u0414\u043e\u043c\u0438\u043d\u0438\u043a\u0430\u043d\u0441\u043a\u0430\u044f \u0420\u0435\u0441\u043f\u0443\u0431\u043b\u0438\u043a\u0430", "name_uz": "Dominikan Respublikasi", "lat": null, "lng": null}}, {"model": "geo.country", "pk": 65, "fields": {"iso_code": "EC", "iso_code3": "ECU", "name_ru": "\u042d\u043a\u0432\u0430\u0434\u043e\u0440", "name_uz": "Ekvador", "lat": null, "lng": null}}, {"model": "geo.country", "pk": 66, "fields": {"iso_code": "EG", "iso_code3": "EGY", "name_ru": "\u0415\u0433\u0438\u043f\u0435\u0442", "name_uz": "Misr", "lat": null, "lng": null}}, {"model": "geo.country", "pk": 67, "fields": {"iso_code": "SV", "iso_code3": "SLV", "name_ru": "\u042d\u043b\u044c-\u0421\u0430\u043b\u044c\u0432\u0430\u0434\u043e\u0440", "name_uz": "Salvador", "lat": null, "lng": null}}, {"model": "geo.country", "pk": 68, "fields": {"iso_code": "GQ", "iso_code3": "GNQ", "name_ru": "\u042d\u043a\u0432\u0430\u0442\u043e\u0440\u0438\u0430\u043b\u044c\u043d\u0430\u044f \u0413\u0432\u0438\u043d\u0435\u044f", "name_uz": "Ekvatorial Gvineya", "lat": null, "lng": null}}, {"model": "geo.country", "pk": 69, "fields": {"iso_code": "ER", "iso_code3": "ERI", "name_ru": "\u042d\u0440\u0438\u0442\u0440\u0435\u044f", "name_uz": "Eritreya", "lat": null, "lng": null}}, {"model": "geo.country", "pk": 70, "fields": {"iso_code": "EE", "iso_code3": "EST", "name_ru": "\u042d\u0441\u0442\u043e\u043d\u0438\u044f", "name_uz": "Estoniya", "lat": null, "lng": null}}, {"model": "geo.country", "pk": 71, "fields": {"iso_code": "ET", "iso_code3": "ETH", "name_ru": "\u042d\u0444\u0438\u043e\u043f\u0438\u044f", "name_uz": "Efiopiya", "lat": null, "lng": null}}, {"model": "geo.country", "pk": 72, "fields": {"iso_code": "FK", "iso_code3": "FLK", "name_ru": "\u0424\u043e\u043b\u043a\u043b\u0435\u043d\u0434\u0441\u043a\u0438\u0435 \u043e\u0441\u0442\u0440\u043e\u0432\u0430", "name_uz": "Falkland orollari", "lat": null, "lng": null}}, {"model": "geo.country", "pk": 73, "fields": {"iso_code": "FO", "iso_code3": "FRO", "name_ru": "\u0424\u0430\u0440\u0435\u0440\u0441\u043a\u0438\u0435 \u043e\u0441\u0442\u0440\u043e\u0432\u0430", "name_uz": "Farer orollari", "lat": null, "lng": null}}, {"model": "geo.country", "pk": 74, "fields": {"iso_code": "FJ", "iso_code3": "FJI", "name_ru": "\u0424\u0438\u0434\u0436\u0438", "name_uz": "Fidji", "lat": null, "lng": null}}, {"model": "geo.country", "pk": 75, "fields": {"iso_code": "FI", "iso_code3": "FIN", "name_ru": "\u0424\u0438\u043d\u043b\u044f\u043d\u0434\u0438\u044f", "name_uz": "Finlandiya", "lat": null, "lng": null}}, {"model": "geo.country", "pk": 76, "fields": {"iso_code": "FR", "iso_code3": "FRA", "name_ru": "\u0424\u0440\u0430\u043d\u0446\u0438\u044f", "name_uz": "Fransiya", "lat": null, "lng": null}}, {"model": "geo.country", "pk": 77, "fields": {"iso_code": "GF", "iso_code3": "GUF", "name_ru": "\u0424\u0440\u0430\u043d\u0446\u0443\u0437\u0441\u043a\u0430\u044f \u0413\u0432\u0438\u0430\u043d\u0430", "name_uz": "Fransiya Guyanas\u0131", "lat": null, "lng": null}}, {"model": "geo.country", "pk": 78, "fields": {"iso_code": "PF", "iso_code3": "PYF", "name_ru": "\u0424\u0440\u0430\u043d\u0446\u0443\u0437\u0441\u043a\u0430\u044f \u041f\u043e\u043b\u0438\u043d\u0435\u0437\u0438\u044f", "name_uz": "Frantsiya Polineziyasi", "lat": null, "lng": null}}, {"model": "geo.country", "pk": 79, "fields": {"iso_code": "TF", "iso_code3": "ATF", "name_ru": "\u042e\u0436\u043d\u044b\u0435 \u0424\u0440\u0430\u043d\u0446\u0443\u0437\u0441\u043a\u0438\u0435 \u0422\u0435\u0440\u0440\u0438\u0442\u043e\u0440\u0438\u0438", "name_uz": "Janubiy Fransuz hududlari", "lat": null, "lng": null}}, {"model": "geo.country", "pk": 80, "fields": {"iso_code": "GA", "iso_code3": "GAB", "name_ru": "\u0413\u0430\u0431\u043e\u043d", "name_uz": "Gabon", "lat": null, "lng": null}}, {"model": "geo.country", "pk": 81, "fields": {"iso_code": "GM", "iso_code3": "GMB", "name_ru": "\u0413\u0430\u043c\u0431\u0438\u044f", "name_uz": "Gambiya", "lat": null, "lng": null}}, {"model": "geo.country", "pk": 82, "fields": {"iso_code": "GE", "iso_code3": "GEO", "name_ru": "\u0413\u0440\u0443\u0437\u0438\u044f", "name_uz": "Gruziya", "lat": null, "lng": null}}, {"model": "geo.country", "pk": 83, "fields": {"iso_code": "DE", "iso_code3": "DEU", "name_ru": "\u0413\u0435\u0440\u043c\u0430\u043d\u0438\u044f", "name_uz": "Germaniya", "lat": null, "lng": null}}, {"model": "geo.country", "pk": 84, "fields": {"iso_code": "GH", "iso_code3": "GHA", "name_ru": "\u0413\u0430\u043d\u0430", "name_uz": "Gana", "lat": null, "lng": null}}, {"model": "geo.country", "pk": 85, "fields": {"iso_code": "GI", "iso_code3": "GIB", "name_ru": "\u0413\u0438\u0431\u0440\u0430\u043b\u0442\u0430\u0440", "name_uz": "Gibraltar", "lat": null, "lng": null}}, {"model": "geo.country", "pk": 86, "fields": {"iso_code": "GR", "iso_code3": "GRC", "name_ru": "\u0413\u0440\u0435\u0446\u0438\u044f", "name_uz": "Gretsiya", "lat": null, "lng": null}}, {"model": "geo.country", "pk": 87, "fields": {"iso_code": "GL", "iso_code3": "GRL", "name_ru": "\u0413\u0440\u0435\u043d\u043b\u0430\u043d\u0434\u0438\u044f", "name_uz": "Grenlandiya", "lat": null, "lng": null}}, {"model": "geo.country", "pk": 88, "fields": {"iso_code": "GD", "iso_code3": "GRD", "name_ru": "\u0413\u0440\u0435\u043d\u0430\u0434\u0430", "name_uz": "Grenada", "lat": null, "lng": null}}, {"model": "geo.country", "pk": 89, "fields": {"iso_code": "GP", "iso_code3": "GLP", "name_ru": "\u0413\u0432\u0430\u0434\u0435\u043b\u0443\u043f\u0430", "name_uz": "Gvadelupa", "lat": null, "lng": null}}, {"model": "geo.country", "pk": 90, "fields": {"iso_code": "GU", "iso_code3": "GUM", "name_ru": "\u0413\u0443\u0430\u043c", "name_uz": "Guam", "lat": null, "lng": null}}, {"model": "geo.country", "pk": 91, "fields": {"iso_code": "GT", "iso_code3": "GTM", "name_ru": "\u0413\u0432\u0430\u0442\u0435\u043c\u0430\u043b\u0430", "name_uz": "Gvatemala", "lat": null, "lng": null}}, {"model": "geo.country", "pk": 92, "fields": {"iso_code": "GG", "iso_code3": "GGY", "name_ru": "\u0413\u0435\u0440\u043d\u0441\u0438", "name_uz": "Gernsi", "lat": null, "lng": null}}, {"model": "geo.country", "pk": 93, "fields": {"iso_code": "GN", "iso_code3": "GIN", "name_ru": "\u0413\u0432\u0438\u043d\u0435\u044f", "name_uz": "Gvineya", "lat": null, "lng": null}}, {"model": "geo.country", "pk": 94, "fields": {"iso_code": "GW", "iso_code3": "GNB", "name_ru": "\u0413\u0432\u0438\u043d\u0435\u044f-\u0411\u0438\u0441\u0430\u0443", "name_uz": "Gvineya-Bissau", "lat": null, "lng": null}}, {"model": "geo.country", "pk": 95, "fields": {"iso_code": "GY", "iso_code3": "GUY", "name_ru": "\u0413\u0430\u0439\u0430\u043d\u0430", "name_uz": "Guyana", "lat": null, "lng": null}}, {"model": "geo.country", "pk": 96, "fields": {"iso_code": "HT", "iso_code3": "HTI", "name_ru": "\u0413\u0430\u0438\u0442\u0438", "name_uz": "Gaiti", "lat": null, "lng": null}}, {"model": "geo.country", "pk": 97, "fields": {"iso_code": "HM", "iso_code3": "HMD", "name_ru": "\u041e\u0441\u0442\u0440\u043e\u0432 \u0425\u0435\u0440\u0434 \u0438 \u043e\u0441\u0442\u0440\u043e\u0432\u0430 \u041c\u0430\u043a\u0434\u043e\u043d\u0430\u043b\u044c\u0434", "name_uz": "Heard orolining va McDonald orollari", "lat": null, "lng": null}}, {"model": "geo.country", "pk": 98, "fields": {"iso_code": "HN", "iso_code3": "HND", "name_ru": "\u0413\u043e\u043d\u0434\u0443\u0440\u0430\u0441", "name_uz": "Gonduras", "lat": null, "lng": null}}, {"model": "geo.country", "pk": 99, "fields": {"iso_code": "HK", "iso_code3": "HKG", "name_ru": "\u0413\u043e\u043d\u043a\u043e\u043d\u0433", "name_uz": "Gongkong", "lat": null, "lng": null}}, {"model": "geo.country", "pk": 100, "fields": {"iso_code": "HU", "iso_code3": "HUN", "name_ru": "\u0412\u0435\u043d\u0433\u0440\u0438\u044f", "name_uz": "Vengriya", "lat": null, "lng": null}}, {"model": "geo.country", "pk": 101, "fields": {"iso_code": "IS", "iso_code3": "ISL", "name_ru": "\u0418\u0441\u043b\u0430\u043d\u0434\u0438\u044f", "name_uz": "Islandiya", "lat": null, "lng": null}}, {"model": "geo.country", "pk": 102, "fields": {"iso_code": "IN", "iso_code3": "IND", "name_ru": "\u0418\u043d\u0434\u0438\u044f", "name_uz": "Hindiston", "lat": null, "lng": null}}, {"model": "geo.country", "pk": 103, "fields": {"iso_code": "ID", "iso_code3": "IDN", "name_ru": "\u0418\u043d\u0434\u043e\u043d\u0435\u0437\u0438\u044f", "name_uz": "Indoneziya", "lat": null, "lng": null}}, {"model": "geo.country", "pk": 104, "fields": {"iso_code": "IR", "iso_code3": "IRN", "name_ru": "\u0418\u0440\u0430\u043d", "name_uz": "Eron", "lat": null, "lng": null}}, {"model": "geo.country", "pk": 105, "fields": {"iso_code": "IQ", "iso_code3": "IRQ", "name_ru": "\u0418\u0440\u0430\u043a", "name_uz": "Iroq", "lat": null, "lng": null}}, {"model": "geo.country", "pk": 106, "fields": {"iso_code": "IE", "iso_code3": "IRL", "name_ru": "\u0418\u0440\u043b\u0430\u043d\u0434\u0438\u044f", "name_uz": "Irlandiya", "lat": null, "lng": null}}, {"model": "geo.country", "pk": 107, "fields": {"iso_code": "IM", "iso_code3": "IMN", "name_ru": "\u041e\u0441\u0442\u0440\u043e\u0432 \u041c\u044d\u043d", "name_uz": "Man oroli", "lat": null, "lng": null}}, {"model": "geo.country", "pk": 108, "fields": {"iso_code": "IL", "iso_code3": "ISR", "name_ru": "\u0418\u0437\u0440\u0430\u0438\u043b\u044c", "name_uz": "Isroil", "lat": null, "lng": null}}, {"model": "geo.country", "pk": 109, "fields": {"iso_code": "IT", "iso_code3": "ITA", "name_ru": "\u0418\u0442\u0430\u043b\u0438\u044f", "name_uz": "Italiya", "lat": null, "lng": null}}, {"model": "geo.country", "pk": 110, "fields": {"iso_code": "JM", "iso_code3": "JAM", "name_ru": "\u042f\u043c\u0430\u0439\u043a\u0430", "name_uz": "Yamayka", "lat": null, "lng": null}}, {"model": "geo.country", "pk": 111, "fields": {"iso_code": "JP", "iso_code3": "JPN", "name_ru": "\u042f\u043f\u043e\u043d\u0438\u044f", "name_uz": "Yaponiya", "lat": null, "lng": null}}, {"model": "geo.country", "pk": 112, "fields": {"iso_code": "JE", "iso_code3": "JEY", "name_ru": "\u0414\u0436\u0435\u0440\u0441\u0438", "name_uz": "Jersi", "lat": null, "lng": null}}, {"model": "geo.country", "pk": 113, "fields": {"iso_code": "JO", "iso_code3": "JOR", "name_ru": "\u0418\u043e\u0440\u0434\u0430\u043d\u0438\u044f", "name_uz": "Iordaniya", "lat": null, "lng": null}}, {"model": "geo.country", "pk": 114, "fields": {"iso_code": "KZ", "iso_code3": "KAZ", "name_ru": "\u041a\u0430\u0437\u0430\u0445\u0441\u0442\u0430\u043d", "name_uz": "Qozog'iston", "lat": null, "lng": null}}, {"model": "geo.country", "pk": 115, "fields": {"iso_code": "KE", "iso_code3": "KEN", "name_ru": "\u041a\u0435\u043d\u0438\u044f", "name_uz": "Keniya", "lat": null, "lng": null}}, {"model": "geo.country", "pk": 116, "fields": {"iso_code": "KI", "iso_code3": "KIR", "name_ru": "\u041a\u0438\u0440\u0438\u0431\u0430\u0442\u0438", "name_uz": "Kiribati", "lat": null, "lng": null}}, {"model": "geo.country", "pk": 117, "fields": {"iso_code": "XK", "iso_code3": "XKX", "name_ru": "\u041a\u043e\u0441\u043e\u0432\u043e", "name_uz": "Kosovo", "lat": null, "lng": null}}, {"model": "geo.country", "pk": 118, "fields": {"iso_code": "KW", "iso_code3": "KWT", "name_ru": "\u041a\u0443\u0432\u0435\u0439\u0442", "name_uz": "Quvayt", "lat": null, "lng": null}}, {"model": "geo.country", "pk": 119, "fields": {"iso_code": "KG", "iso_code3": "KGZ", "name_ru": "\u041a\u0438\u0440\u0433\u0438\u0437\u0438\u044f", "name_uz": "Qirg'iziston", "lat": null, "lng": null}}, {"model": "geo.country", "pk": 120, "fields": {"iso_code": "LA", "iso_code3": "LAO", "name_ru": "\u041b\u0430\u043e\u0441", "name_uz": "Laos", "lat": null, "lng": null}}, {"model": "geo.country", "pk": 121, "fields": {"iso_code": "LV", "iso_code3": "LVA", "name_ru": "\u041b\u0430\u0442\u0432\u0438\u044f", "name_uz": "Latviya", "lat": null, "lng": null}}, {"model": "geo.country", "pk": 122, "fields": {"iso_code": "LB", "iso_code3": "LBN", "name_ru": "\u041b\u0438\u0432\u0430\u043d", "name_uz": "Livan", "lat": null, "lng": null}}, {"model": "geo.country", "pk": 123, "fields": {"iso_code": "LS", "iso_code3": "LSO", "name_ru": "\u041b\u0435\u0441\u043e\u0442\u043e", "name_uz": "Lesoto", "lat": null, "lng": null}}, {"model": "geo.country", "pk": 124, "fields": {"iso_code": "LR", "iso_code3": "LBR", "name_ru": "\u041b\u0438\u0431\u0435\u0440\u0438\u044f", "name_uz": "Liberiya", "lat": null, "lng": null}}, {"model": "geo.country", "pk": 125, "fields": {"iso_code": "LY", "iso_code3": "LBY", "name_ru": "\u041b\u0438\u0432\u0438\u044f", "name_uz": "Liviya", "lat": null, "lng": null}}, {"model": "geo.country", "pk": 126, "fields": {"iso_code": "LI", "iso_code3": "LIE", "name_ru": "\u041b\u0438\u0445\u0442\u0435\u043d\u0448\u0442\u0435\u0439\u043d", "name_uz": "Lixtenshteyn", "lat": null, "lng": null}}, {"model": "geo.country", "pk": 127, "fields": {"iso_code": "LT", "iso_code3": "LTU", "name_ru": "\u041b\u0438\u0442\u0432\u0430", "name_uz": "Litva", "lat": null, "lng": null}}, {"model": "geo.country", "pk": 128, "fields": {"iso_code": "LU", "iso_code3": "LUX", "name_ru": "\u041b\u044e\u043a\u0441\u0435\u043c\u0431\u0443\u0440\u0433", "name_uz": "Lyuksemburg", "lat": null, "lng": null}}, {"model": "geo.country", "pk": 129, "fields": {"iso_code": "MO", "iso_code3": "MAC", "name_ru": "\u041c\u0430\u043a\u0430\u043e", "name_uz": "Makao", "lat": null, "lng": null}}, {"model": "geo.country", "pk": 130, "fields": {"iso_code": "MK", "iso_code3": "MKD", "name_ru": "\u041c\u0430\u043a\u0435\u0434\u043e\u043d\u0438\u044f", "name_uz": "Makedoniya", "lat": null, "lng": null}}, {"model": "geo.country", "pk": 131, "fields": {"iso_code": "MG", "iso_code3": "MDG", "name_ru": "\u041c\u0430\u0434\u0430\u0433\u0430\u0441\u043a\u0430\u0440", "name_uz": "Madagaskar", "lat": null, "lng": null}}, {"model": "geo.country", "pk": 132, "fields": {"iso_code": "MW", "iso_code3": "MWI", "name_ru": "\u041c\u0430\u043b\u0430\u0432\u0438", "name_uz": "Malavi", "lat": null, "lng": null}}, {"model": "geo.country", "pk": 133, "fields": {"iso_code": "MY", "iso_code3": "MYS", "name_ru": "\u041c\u0430\u043b\u0430\u0439\u0437\u0438\u044f", "name_uz": "Malayziya", "lat": null, "lng": null}}, {"model": "geo.country", "pk": 134, "fields": {"iso_code": "MV", "iso_code3": "MDV", "name_ru": "\u041c\u0430\u043b\u044c\u0434\u0438\u0432\u044b", "name_uz": "Maldiv orollari", "lat": null, "lng": null}}, {"model": "geo.country", "pk": 135, "fields": {"iso_code": "ML", "iso_code3": "MLI", "name_ru": "\u041c\u0430\u043b\u0438", "name_uz": "Mali", "lat": null, "lng": null}}, {"model": "geo.country", "pk": 136, "fields": {"iso_code": "MT", "iso_code3": "MLT", "name_ru": "\u041c\u0430\u043b\u044c\u0442\u0430", "name_uz": "Malta", "lat": null, "lng": null}}, {"model": "geo.country", "pk": 137, "fields": {"iso_code": "MH", "iso_code3": "MHL", "name_ru": "\u041c\u0430\u0440\u0448\u0430\u043b\u043b\u043e\u0432\u044b \u041e\u0441\u0442\u0440\u043e\u0432\u0430", "name_uz": "Marshall orollari", "lat": null, "lng": null}}, {"model": "geo.country", "pk": 138, "fields": {"iso_code": "MQ", "iso_code3": "MTQ", "name_ru": "\u041c\u0430\u0440\u0442\u0438\u043d\u0438\u043a\u0430", "name_uz": "Martinique", "lat": null, "lng": null}}, {"model": "geo.country", "pk": 139, "fields": {"iso_code": "MR", "iso_code3": "MRT", "name_ru": "\u041c\u0430\u0432\u0440\u0438\u0442\u0430\u043d\u0438\u044f", "name_uz": "Mavritaniya", "lat": null, "lng": null}}, {"model": "geo.country", "pk": 140, "fields": {"iso_code": "MU", "iso_code3": "MUS", "name_ru": "\u041c\u0430\u0432\u0440\u0438\u043a\u0438\u0439", "name_uz": "Mavrikiy", "lat": null, "lng": null}}, {"model": "geo.country", "pk": 141, "fields": {"iso_code": "YT", "iso_code3": "MYT", "name_ru": "\u041c\u0430\u0439\u043e\u0442\u0442\u0430", "name_uz": "Mayotda", "lat": null, "lng": null}}, {"model": "geo.country", "pk": 142, "fields": {"iso_code": "MX", "iso_code3": "MEX", "name_ru": "\u041c\u0435\u043a\u0441\u0438\u043a\u0430", "name_uz": "Meksika", "lat": null, "lng": null}}, {"model": "geo.country", "pk": 143, "fields": {"iso_code": "FM", "iso_code3": "FSM", "name_ru": "\u041c\u0438\u043a\u0440\u043e\u043d\u0435\u0437\u0438\u0438, \u0424\u0435\u0434\u0435\u0440\u0430\u0442\u0438\u0432\u043d\u044b\u0435 \u0428\u0442\u0430\u0442\u044b", "name_uz": "Mikroneziya, federal davlatlar", "lat": null, "lng": null}}, {"model": "geo.country", "pk": 144, "fields": {"iso_code": "MD", "iso_code3": "MDA", "name_ru": "\u041c\u043e\u043b\u0434\u0430\u0432\u0438\u044f", "name_uz": "Moldova", "lat": null, "lng": null}}, {"model": "geo.country", "pk": 145, "fields": {"iso_code": "MC", "iso_code3": "MCO", "name_ru": "\u041c\u043e\u043d\u0430\u043a\u043e", "name_uz": "Monako", "lat": null, "lng": null}}, {"model": "geo.country", "pk": 146, "fields": {"iso_code": "MN", "iso_code3": "MNG", "name_ru": "\u041c\u043e\u043d\u0433\u043e\u043b\u0438\u044f", "name_uz": "Mo'g'uliston", "lat": null, "lng": null}}, {"model": "geo.country", "pk": 147, "fields": {"iso_code": "ME", "iso_code3": "MNE", "name_ru": "\u0427\u0435\u0440\u043d\u043e\u0433\u043e\u0440\u0438\u044f", "name_uz": "Chernogoriya", "lat": null, "lng": null}}, {"model": "geo.country", "pk": 148, "fields": {"iso_code": "MS", "iso_code3": "MSR", "name_ru": "\u041c\u043e\u043d\u0442\u0441\u0435\u0440\u0430\u0442", "name_uz": "Montserrat", "lat": null, "lng": null}}, {"model": "geo.country", "pk": 149, "fields": {"iso_code": "MA", "iso_code3": "MAR", "name_ru": "\u041c\u0430\u0440\u043e\u043a\u043a\u043e", "name_uz": "Marokash", "lat": null, "lng": null}}, {"model": "geo.country", "pk": 150, "fields": {"iso_code": "MZ", "iso_code3": "MOZ", "name_ru": "\u041c\u043e\u0437\u0430\u043c\u0431\u0438\u043a", "name_uz": "Mozambik", "lat": null, "lng": null}}, {"model": "geo.country", "pk": 151, "fields": {"iso_code": "MM", "iso_code3": "MMR", "name_ru": "\u041c\u044c\u044f\u043d\u043c\u0430", "name_uz": "Myanma", "lat": null, "lng": null}}, {"model": "geo.country", "pk": 152, "fields": {"iso_code": "NA", "iso_code3": "NAM", "name_ru": "\u041d\u0430\u043c\u0438\u0431\u0438\u044f", "name_uz": "Namibiya", "lat": null, "lng": null}}, {"model": "geo.country", "pk": 153, "fields": {"iso_code": "NR", "iso_code3": "NRU", "name_ru": "\u041d\u0430\u0443\u0440\u0443", "name_uz": "Nauru", "lat": null, "lng": null}}, {"model": "geo.country", "pk": 154, "fields": {"iso_code": "NP", "iso_code3": "NPL", "name_ru": "\u041d\u0435\u043f\u0430\u043b", "name_uz": "Nepal", "lat": null, "lng": null}}, {"model": "geo.country", "pk": 155, "fields": {"iso_code": "NL", "iso_code3": "NLD", "name_ru": "\u041d\u0438\u0434\u0435\u0440\u043b\u0430\u043d\u0434\u044b", "name_uz": "Gollandiya", "lat": null, "lng": null}}, {"model": "geo.country", "pk": 156, "fields": {"iso_code": "NC", "iso_code3": "NCL", "name_ru": "\u041d\u043e\u0432\u0430\u044f \u041a\u0430\u043b\u0435\u0434\u043e\u043d\u0438\u044f", "name_uz": "Yangi Kaledoniya", "lat": null, "lng": null}}, {"model": "geo.country", "pk": 157, "fields": {"iso_code": "NZ", "iso_code3": "NZL", "name_ru": "\u041d\u043e\u0432\u0430\u044f \u0417\u0435\u043b\u0430\u043d\u0434\u0438\u044f", "name_uz": "Yangi Zelandiya", "lat": null, "lng": null}}, {"model": "geo.country", "pk": 158, "fields": {"iso_code": "NI", "iso_code3": "NIC", "name_ru": "\u041d\u0438\u043a\u0430\u0440\u0430\u0433\u0443\u0430", "name_uz": "Nikaragua", "lat": null, "lng": null}}, {"model": "geo.country", "pk": 159, "fields": {"iso_code": "NE", "iso_code3": "NER", "name_ru": "\u041d\u0438\u0433\u0435\u0440", "name_uz": "Niger", "lat": null, "lng": null}}, {"model": "geo.country", "pk": 160, "fields": {"iso_code": "NG", "iso_code3": "NGA", "name_ru": "\u041d\u0438\u0433\u0435\u0440\u0438\u044f", "name_uz": "Nigeriya", "lat": null, "lng": null}}, {"model": "geo.country", "pk": 161, "fields": {"iso_code": "NU", "iso_code3": "NIU", "name_ru": "\u041d\u0438\u0443\u044d", "name_uz": "Niue", "lat": null, "lng": null}}, {"model": "geo.country", "pk": 162, "fields": {"iso_code": "NF", "iso_code3": "NFK", "name_ru": "\u041d\u043e\u0440\u0432\u0435\u0433\u0438\u044f", "name_uz": "Norvegiya", "lat": null, "lng": null}}, {"model": "geo.country", "pk": 163, "fields": {"iso_code": "KP", "iso_code3": "PRK", "name_ru": "\u041a\u043e\u0440\u0435\u044f, \u0441\u0435\u0432\u0435\u0440\u043d\u0430\u044f", "name_uz": "Shimoliy Koreya", "lat": null, "lng": null}}, {"model": "geo.country", "pk": 164, "fields": {"iso_code": "MP", "iso_code3": "MNP", "name_ru": "\u0421\u0435\u0432\u0435\u0440\u043d\u044b\u0435 \u041c\u0430\u0440\u0438\u0430\u043d\u0441\u043a\u0438\u0435 \u043e\u0441\u0442\u0440\u043e\u0432\u0430", "name_uz": "Shimoliy Mariana orollari", "lat": null, "lng": null}}, {"model": "geo.country", "pk": 165, "fields": {"iso_code": "NO", "iso_code3": "NOR", "name_ru": "\u041d\u043e\u0440\u0432\u0435\u0433\u0438\u044f", "name_uz": "Norvegiya", "lat": null, "lng": null}}, {"model": "geo.country", "pk": 166, "fields": {"iso_code": "OM", "iso_code3": "OMN", "name_ru": "\u041e\u043c\u0430\u043d", "name_uz": "Ummon", "lat": null, "lng": null}}, {"model": "geo.country", "pk": 167, "fields": {"iso_code": "PK", "iso_code3": "PAK", "name_ru": "\u041f\u0430\u043a\u0438\u0441\u0442\u0430\u043d", "name_uz": "Pokiston", "lat": null, "lng": null}}, {"model": "geo.country", "pk": 168, "fields": {"iso_code": "PW", "iso_code3": "PLW", "name_ru": "\u041f\u0430\u043b\u0430\u0443", "name_uz": "Palau", "lat": null, "lng": null}}, {"model": "geo.country", "pk": 169, "fields": {"iso_code": "PS", "iso_code3": "PSE", "name_ru": "\u041f\u0430\u043b\u0435\u0441\u0442\u0438\u043d\u0430", "name_uz": "Falastin", "lat": null, "lng": null}}, {"model": "geo.country", "pk": 170, "fields": {"iso_code": "PA", "iso_code3": "PAN", "name_ru": "\u041f\u0430\u043d\u0430\u043c\u0430", "name_uz": "Panama", "lat": null, "lng": null}}, {"model": "geo.country", "pk": 171, "fields": {"iso_code": "PG", "iso_code3": "PNG", "name_ru": "\u041f\u0430\u043f\u0443\u0430 \u2014 \u041d\u043e\u0432\u0430\u044f \u0413\u0432\u0438\u043d\u0435\u044f", "name_uz": "Papua-Yangi Gvineya", "lat": null, "lng": null}}, {"model": "geo.country", "pk": 172, "fields": {"iso_code": "PY", "iso_code3": "PRY", "name_ru": "\u041f\u0430\u0440\u0430\u0433\u0432\u0430\u0439", "name_uz": "Paragvay", "lat": null, "lng": null}}, {"model": "geo.country", "pk": 173, "fields": {"iso_code": "PE", "iso_code3": "PER", "name_ru": "\u041f\u0435\u0440\u0443", "name_uz": "Peru", "lat": null, "lng": null}}, {"model": "geo.country", "pk": 174, "fields": {"iso_code": "PH", "iso_code3": "PHL", "name_ru": "\u0424\u0438\u043b\u0438\u043f\u043f\u0438\u043d\u044b", "name_uz": "Filippin", "lat": null, "lng": null}}, {"model": "geo.country", "pk": 175, "fields": {"iso_code": "PN", "iso_code3": "PCN", "name_ru": "\u041f\u0438\u0442\u043a\u0435\u0440\u043d", "name_uz": "Pitkern", "lat": null, "lng": null}}, {"model": "geo.country", "pk": 176, "fields": {"iso_code": "PL", "iso_code3": "POL", "name_ru": "\u041f\u043e\u043b\u044c\u0448\u0430", "name_uz": "Polsha", "lat": null, "lng": null}}, {"model": "geo.country", "pk": 177, "fields": {"iso_code": "PT", "iso_code3": "PRT", "name_ru": "\u041f\u043e\u0440\u0442\u0443\u0433\u0430\u043b\u0438\u044f", "name_uz": "Portugaliya", "lat": null, "lng": null}}, {"model": "geo.country", "pk": 178, "fields": {"iso_code": "PR", "iso_code3": "PRI", "name_ru": "\u041f\u0443\u044d\u0440\u0442\u043e-\u0420\u0438\u043a\u043e", "name_uz": "Puerto-Riko", "lat": null, "lng": null}}, {"model": "geo.country", "pk": 179, "fields": {"iso_code": "QA", "iso_code3": "QAT", "name_ru": "\u041a\u0430\u0442\u0430\u0440", "name_uz": "Qatar", "lat": null, "lng": null}}, {"model": "geo.country", "pk": 180, "fields": {"iso_code": "RE", "iso_code3": "REU", "name_ru": "\u0420\u0435\u044e\u043d\u044c\u043e\u043d", "name_uz": "Reunion", "lat": null, "lng": null}}, {"model": "geo.country", "pk": 181, "fields": {"iso_code": "RO", "iso_code3": "ROU", "name_ru": "\u0420\u0443\u043c\u044b\u043d\u0438\u044f", "name_uz": "Ruminiya", "lat": null, "lng": null}}, {"model": "geo.country", "pk": 182, "fields": {"iso_code": "RU", "iso_code3": "RUS", "name_ru": "\u0420\u043e\u0441\u0441\u0438\u044f", "name_uz": "Rossiya", "lat": null, "lng": null}}, {"model": "geo.country", "pk": 183, "fields": {"iso_code": "RW", "iso_code3": "RWA", "name_ru": "\u0420\u0443\u0430\u043d\u0434\u0430", "name_uz": "Ruandada", "lat": null, "lng": null}}, {"model": "geo.country", "pk": 184, "fields": {"iso_code": "BL", "iso_code3": "BLM", "name_ru": "\u0421\u0435\u043d-\u0411\u0430\u0440\u0442\u0435\u043b\u044c\u043c\u0438", "name_uz": "Saint Barthelemy", "lat": null, "lng": null}}, {"model": "geo.country", "pk": 185, "fields": {"iso_code": "SH", "iso_code3": "SHN", "name_ru": "\u0421\u0432\u044f\u0442\u0430\u044f \u0415\u043b\u0435\u043d\u0430", "name_uz": "Saint Helena", "lat": null, "lng": null}}, {"model": "geo.country", "pk": 186, "fields": {"iso_code": "KN", "iso_code3": "KNA", "name_ru": "\u0421\u0435\u043d\u0442-\u041a\u0438\u0442\u0441 \u0438 \u041d\u0435\u0432\u0438\u0441", "name_uz": "Sent-Kits va Nevis", "lat": null, "lng": null}}, {"model": "geo.country", "pk": 187, "fields": {"iso_code": "LC", "iso_code3": "LCA", "name_ru": "\u0421\u0435\u043d\u0442-\u041b\u044e\u0441\u0438\u044f", "name_uz": "Saint Lucia", "lat": null, "lng": null}}, {"model": "geo.country", "pk": 188, "fields": {"iso_code": "MF", "iso_code3": "MAF", "name_ru": "\u0421\u0435\u043d-\u041c\u0430\u0440\u0442\u0435\u043d", "name_uz": "Saint-Martin", "lat": null, "lng": null}}, {"model": "geo.country", "pk": 189, "fields": {"iso_code": "PM", "iso_code3": "SPM", "name_ru": "\u0421\u0435\u043d\u0442-\u041f\u044c\u0435\u0440 \u0438 \u041c\u0438\u043a\u0435\u043b\u043e\u043d", "name_uz": "Saint Pierre and Miquelon", "lat": null, "lng": null}}, {"model": "geo.country", "pk": 190, "fields": {"iso_code": "VC", "iso_code3": "VCT", "name_ru": "\u0421\u0435\u043d\u0442-\u0412\u0438\u043d\u0441\u0435\u043d\u0442 \u0438 \u0413\u0440\u0435\u043d\u0430\u0434\u0438\u043d\u044b", "name_uz": "Saint Vincent and the Grenadines", "lat": null, "lng": null}}, {"model": "geo.country", "pk": 191, "fields": {"iso_code": "WS", "iso_code3": "WSM", "name_ru": "\u0421\u0430\u043c\u043e\u0430", "name_uz": "Samoa", "lat": null, "lng": null}}, {"model": "geo.country", "pk": 192, "fields": {"iso_code": "SM", "iso_code3": "SMR", "name_ru": "\u0421\u0430\u043d-\u041c\u0430\u0440\u0438\u043d\u043e", "name_uz": "San-Marino", "lat": null, "lng": null}}, {"model": "geo.country", "pk": 193, "fields": {"iso_code": "ST", "iso_code3": "STP", "name_ru": "\u0421\u0430\u043d-\u0422\u043e\u043c\u0435 \u0438 \u041f\u0440\u0438\u043d\u0441\u0438\u043f\u0438", "name_uz": "San-Tome va Principe", "lat": null, "lng": null}}, {"model": "geo.country", "pk": 194, "fields": {"iso_code": "SA", "iso_code3": "SAU", "name_ru": "\u0421\u0430\u0443\u0434\u043e\u0432\u0441\u043a\u0430\u044f \u0410\u0440\u0430\u0432\u0438\u044f", "name_uz": "Saudiya Arabistoni", "lat": null, "lng": null}}, {"model": "geo.country", "pk": 195, "fields": {"iso_code": "SN", "iso_code3": "SEN", "name_ru": "\u0421\u0435\u043d\u0435\u0433\u0430\u043b", "name_uz": "Senegal", "lat": null, "lng": null}}, {"model": "geo.country", "pk": 196, "fields": {"iso_code": "RS", "iso_code3": "SRB", "name_ru": "\u0421\u0435\u0440\u0431\u0438\u044f", "name_uz": "Serbiya", "lat": null, "lng": null}}, {"model": "geo.country", "pk": 197, "fields": {"iso_code": "SC", "iso_code3": "SYC", "name_ru": "\u0421\u0435\u0439\u0448\u0435\u043b\u044c\u0441\u043a\u0438\u0435 \u043e\u0441\u0442\u0440\u043e\u0432\u0430", "name_uz": "Seyshel orollari", "lat": null, "lng": null}}, {"model": "geo.country", "pk": 198, "fields": {"iso_code": "SL", "iso_code3": "SLE", "name_ru": "\u0421\u044c\u0435\u0440\u0440\u0430-\u041b\u0435\u043e\u043d\u0435", "name_uz": "Sierra Leon", "lat": null, "lng": null}}, {"model": "geo.country", "pk": 199, "fields": {"iso_code": "SG", "iso_code3": "SGP", "name_ru": "\u0421\u0438\u043d\u0433\u0430\u043f\u0443\u0440", "name_uz": "Singapur", "lat": null, "lng": null}}, {"model": "geo.country", "pk": 200, "fields": {"iso_code": "SX", "iso_code3": "SXM", "name_ru": "\u0421\u0438\u043d\u0442-\u041c\u0430\u0440\u0442\u0435\u043d", "name_uz": "Sint-Marten", "lat": null, "lng": null}}, {"model": "geo.country", "pk": 201, "fields": {"iso_code": "SK", "iso_code3": "SVK", "name_ru": "\u0421\u043b\u043e\u0432\u0430\u043a\u0438\u044f", "name_uz": "Slovakiya", "lat": null, "lng": null}}, {"model": "geo.country", "pk": 202, "fields": {"iso_code": "SI", "iso_code3": "SVN", "name_ru": "\u0421\u043b\u043e\u0432\u0435\u043d\u0438\u044f", "name_uz": "Sloveniya", "lat": null, "lng": null}}, {"model": "geo.country", "pk": 203, "fields": {"iso_code": "SB", "iso_code3": "SLB", "name_ru": "\u0421\u043e\u043b\u043e\u043c\u043e\u043d\u043e\u0432\u044b \u041e\u0441\u0442\u0440\u043e\u0432\u0430", "name_uz": "Solomon orollari", "lat": null, "lng": null}}, {"model": "geo.country", "pk": 204, "fields": {"iso_code": "SO", "iso_code3": "SOM", "name_ru": "\u0421\u043e\u043c\u0430\u043b\u0438", "name_uz": "Somali", "lat": null, "lng": null}}, {"model": "geo.country", "pk": 205, "fields": {"iso_code": "ZA", "iso_code3": "ZAF", "name_ru": "\u042e\u0436\u043d\u043e-\u0410\u0444\u0440\u0438\u043a\u0430\u043d\u0441\u043a\u0430\u044f \u0420\u0435\u0441\u043f\u0443\u0431\u043b\u0438\u043a\u0430 (\u042e\u0410\u0420)", "name_uz": "Janubiy Afrika", "lat": null, "lng": null}}, {"model": "geo.country", "pk": 206, "fields": {"iso_code": "GS", "iso_code3": "SGS", "name_ru": "\u042e\u0436\u043d\u0430\u044f \u0414\u0436\u043e\u0440\u0434\u0436\u0438\u044f \u0438 \u042e\u0436\u043d\u044b\u0435 \u0421\u0430\u043d\u0434\u0432\u0438\u0447\u0435\u0432\u044b \u043e\u0441\u0442\u0440\u043e\u0432\u0430", "name_uz": "Janubiy Jorjiya va Janubiy Sandvich orollari", "lat": null, "lng": null}}, {"model": "geo.country", "pk": 207, "fields": {"iso_code": "KR", "iso_code3": "KOR", "name_ru": "\u041a\u043e\u0440\u0435\u044f, \u044e\u0436\u043d\u0430\u044f", "name_uz": "Janubiy Koreya", "lat": null, "lng": null}}, {"model": "geo.country", "pk": 208, "fields": {"iso_code": "SS", "iso_code3": "SSD", "name_ru": "\u044e\u0436\u043d\u044b\u0439 \u0421\u0443\u0434\u0430\u043d", "name_uz": "Janubiy Sudan", "lat": null, "lng": null}}, {"model": "geo.country", "pk": 209, "fields": {"iso_code": "ES", "iso_code3": "ESP", "name_ru": "\u0418\u0441\u043f\u0430\u043d\u0438\u044f", "name_uz": "Ispaniya", "lat": null, "lng": null}}, {"model": "geo.country", "pk": 210, "fields": {"iso_code": "LK", "iso_code3": "LKA", "name_ru": "\u0428\u0440\u0438-\u041b\u0430\u043d\u043a\u0430", "name_uz": "Shri Lanka", "lat": null, "lng": null}}, {"model": "geo.country", "pk": 211, "fields": {"iso_code": "SD", "iso_code3": "SDN", "name_ru": "\u0421\u0443\u0434\u0430\u043d", "name_uz": "Sudan", "lat": null, "lng": null}}, {"model": "geo.country", "pk": 212, "fields": {"iso_code": "SR", "iso_code3": "SUR", "name_ru": "\u0421\u0443\u0440\u0438\u043d\u0430\u043c", "name_uz": "Surinam", "lat": null, "lng": null}}, {"model": "geo.country", "pk": 213, "fields": {"iso_code": "SJ", "iso_code3": "SJM", "name_ru": "\u0428\u043f\u0438\u0446\u0431\u0435\u0440\u0433\u0435\u043d \u0438 \u042f\u043d \u041c\u0430\u0439\u0435\u043d", "name_uz": "Spitsbergen va Yan Mayen", "lat": null, "lng": null}}, {"model": "geo.country", "pk": 214, "fields": {"iso_code": "SZ", "iso_code3": "SWZ", "name_ru": "\u0421\u0432\u0430\u0437\u0438\u043b\u0435\u043d\u0434", "name_uz": "Svazilend", "lat": null, "lng": null}}, {"model": "geo.country", "pk": 215, "fields": {"iso_code": "SE", "iso_code3": "SWE", "name_ru": "\u0428\u0432\u0435\u0446\u0438\u044f", "name_uz": "Shvetsiya", "lat": null, "lng": null}}, {"model": "geo.country", "pk": 216, "fields": {"iso_code": "CH", "iso_code3": "CHE", "name_ru": "\u0428\u0432\u0435\u0439\u0446\u0430\u0440\u0438\u044f", "name_uz": "Shveytsariya", "lat": null, "lng": null}}, {"model": "geo.country", "pk": 217, "fields": {"iso_code": "SY", "iso_code3": "SYR", "name_ru": "\u0421\u0438\u0440\u0438\u044f", "name_uz": "Suriya", "lat": null, "lng": null}}, {"model": "geo.country", "pk": 218, "fields": {"iso_code": "TW", "iso_code3": "TWN", "name_ru": "\u0422\u0430\u0439\u0432\u0430\u043d\u044c", "name_uz": "Tayvan", "lat": null, "lng": null}}, {"model": "geo.country", "pk": 219, "fields": {"iso_code": "TJ", "iso_code3": "TJK", "name_ru": "\u0422\u0430\u0434\u0436\u0438\u043a\u0438\u0441\u0442\u0430\u043d", "name_uz": "Tojikiston", "lat": null, "lng": null}}, {"model": "geo.country", "pk": 220, "fields": {"iso_code": "TZ", "iso_code3": "TZA", "name_ru": "\u0422\u0430\u043d\u0437\u0430\u043d\u0438\u044f", "name_uz": "Tanzaniya", "lat": null, "lng": null}}, {"model": "geo.country", "pk": 221, "fields": {"iso_code": "TH", "iso_code3": "THA", "name_ru": "\u0422\u0430\u0438\u043b\u0430\u043d\u0434", "name_uz": "Tailand", "lat": null, "lng": null}}, {"model": "geo.country", "pk": 222, "fields": {"iso_code": "TL", "iso_code3": "TLS", "name_ru": "\u0412\u043e\u0441\u0442\u043e\u0447\u043d\u044b\u0439 \u0422\u0438\u043c\u043e\u0440", "name_uz": "Sharqiy Timor", "lat": null, "lng": null}}, {"model": "geo.country", "pk": 223, "fields": {"iso_code": "TG", "iso_code3": "TGO", "name_ru": "\u0422\u043e\u0433\u043e", "name_uz": "Togo", "lat": null, "lng": null}}, {"model": "geo.country", "pk": 224, "fields": {"iso_code": "TK", "iso_code3": "TKL", "name_ru": "\u0422\u043e\u043a\u0435\u043b\u0430\u0443", "name_uz": "Tokelau", "lat": null, "lng": null}}, {"model": "geo.country", "pk": 225, "fields": {"iso_code": "TO", "iso_code3": "TON", "name_ru": "\u0422\u043e\u0433\u043e", "name_uz": "Togo", "lat": null, "lng": null}}, {"model": "geo.country", "pk": 226, "fields": {"iso_code": "TT", "iso_code3": "TTO", "name_ru": "\u0422\u0440\u0438\u043d\u0438\u0434\u0430\u0434 \u0438 \u0422\u043e\u0431\u0430\u0433\u043e", "name_uz": "Trinidad va Tobago", "lat": null, "lng": null}}, {"model": "geo.country", "pk": 227, "fields": {"iso_code": "TN", "iso_code3": "TUN", "name_ru": "\u0422\u0443\u043d\u0438\u0441", "name_uz": "Tunis", "lat": null, "lng": null}}, {"model": "geo.country", "pk": 228, "fields": {"iso_code": "TR", "iso_code3": "TUR", "name_ru": "\u0422\u0443\u0440\u0446\u0438\u044f", "name_uz": "Turkiya", "lat": null, "lng": null}}, {"model": "geo.country", "pk": 229, "fields": {"iso_code": "TM", "iso_code3": "TKM", "name_ru": "\u0422\u0443\u0440\u043a\u043c\u0435\u043d\u0438\u0441\u0442\u0430\u043d", "name_uz": "Turkmaniston", "lat": null, "lng": null}}, {"model": "geo.country", "pk": 230, "fields": {"iso_code": "TC", "iso_code3": "TCA", "name_ru": "\u041e\u0441\u0442\u0440\u043e\u0432\u0430 \u0422\u0435\u0440\u043a\u0441 \u0438 \u041a\u0430\u0439\u043a\u043e\u0441", "name_uz": "Turklar va Kaykos orollari", "lat": null, "lng": null}}, {"model": "geo.country", "pk": 231, "fields": {"iso_code": "TV", "iso_code3": "TUV", "name_ru": "\u0422\u0443\u0432\u0430\u043b\u0443", "name_uz": "Tuvalu", "lat": null, "lng": null}}, {"model": "geo.country", "pk": 232, "fields": {"iso_code": "UG", "iso_code3": "UGA", "name_ru": "\u0423\u0433\u0430\u043d\u0434\u0430", "name_uz": "Uganda", "lat": null, "lng": null}}, {"model": "geo.country", "pk": 233, "fields": {"iso_code": "UA", "iso_code3": "UKR", "name_ru": "\u0423\u043a\u0440\u0430\u0438\u043d\u0430", "name_uz": "Ukraina", "lat": null, "lng": null}}, {"model": "geo.country", "pk": 234, "fields": {"iso_code": "AE", "iso_code3": "ARE", "name_ru": "\u041e\u0431\u044a\u0435\u0434\u0438\u043d\u0451\u043d\u043d\u044b\u0435 \u0410\u0440\u0430\u0431\u0441\u043a\u0438\u0435 \u042d\u043c\u0438\u0440\u0430\u0442\u044b (\u041e\u0410\u042d)", "name_uz": "Birlashgan Arab Amirliklari", "lat": null, "lng": null}}, {"model": "geo.country", "pk": 235, "fields": {"iso_code": "GB", "iso_code3": "GBR", "name_ru": "\u0412\u0435\u043b\u0438\u043a\u043e\u0431\u0440\u0438\u0442\u0430\u043d\u0438\u044f", "name_uz": "Buyuk Britianiya", "lat": null, "lng": null}}, {"model": "geo.country", "pk": 236, "fields": {"iso_code": "US", "iso_code3": "USA", "name_ru": "\u0421\u0428\u0410", "name_uz": "AQSh", "lat": null, "lng": null}}, {"model": "geo.country", "pk": 237, "fields": {"iso_code": "UM", "iso_code3": "UMI", "name_ru": "\u0412\u043d\u0435\u0448\u043d\u0438\u0435 \u043c\u0430\u043b\u044b\u0435 \u043e\u0441\u0442\u0440\u043e\u0432\u0430 \u0421\u0428\u0410", "name_uz": "Amerika Qo'shma Shtatlari Kichik Tashqi orollari", "lat": null, "lng": null}}, {"model": "geo.country", "pk": 238, "fields": {"iso_code": "UY", "iso_code3": "URY", "name_ru": "\u0423\u0440\u0443\u0433\u0432\u0430\u0439", "name_uz": "Urugvay", "lat": null, "lng": null}}, {"model": "geo.country", "pk": 239, "fields": {"iso_code": "UZ", "iso_code3": "UZB", "name_ru": "\u0423\u0437\u0431\u0435\u043a\u0438\u0441\u0442\u0430\u043d", "name_uz": "O'zbekiston", "lat": null, "lng": null}}, {"model": "geo.country", "pk": 240, "fields": {"iso_code": "VU", "iso_code3": "VUT", "name_ru": "\u0412\u0430\u043d\u0443\u0430\u0442\u0443", "name_uz": "Vanuatu", "lat": null, "lng": null}}, {"model": "geo.country", "pk": 241, "fields": {"iso_code": "VA", "iso_code3": "VAT", "name_ru": "\u0412\u0430\u0442\u0438\u043a\u0430\u043d", "name_uz": "Vatikan", "lat": null, "lng": null}}, {"model": "geo.country", "pk": 242, "fields": {"iso_code": "VE", "iso_code3": "VEN", "name_ru": "\u0412\u0435\u043d\u0435\u0441\u0443\u044d\u043b\u0430", "name_uz": "Venesuela", "lat": null, "lng": null}}, {"model": "geo.country", "pk": 243, "fields": {"iso_code": "VN", "iso_code3": "VNM", "name_ru": "\u0412\u044c\u0435\u0442\u043d\u0430\u043c", "name_uz": "Vetnam", "lat": null, "lng": null}}, {"model": "geo.country", "pk": 244, "fields": {"iso_code": "VG", "iso_code3": "VGB", "name_ru": "\u0412\u0438\u0440\u0433\u0438\u043d\u0441\u043a\u0438\u0435 \u041e\u0441\u0442\u0440\u043e\u0432\u0430, \u0411\u0440\u0438\u0442\u0430\u043d\u0441\u043a\u0438\u0435", "name_uz": "Britaniya Virjiniya orollari, ingliz", "lat": null, "lng": null}}, {"model": "geo.country", "pk": 245, "fields": {"iso_code": "VI", "iso_code3": "VIR", "name_ru": "\u0412\u0438\u0440\u0433\u0438\u043d\u0441\u043a\u0438\u0435 \u041e\u0441\u0442\u0440\u043e\u0432\u0430, \u0410\u043c\u0435\u0440\u0438\u043a\u0430\u043d\u0441\u043a\u0438\u0435", "name_uz": "Virgin orollari, amerika", "lat": null, "lng": null}}, {"model": "geo.country", "pk": 246, "fields": {"iso_code": "WF", "iso_code3": "WLF", "name_ru": "\u0423\u043e\u043b\u043b\u0438\u0441 \u0438 \u0424\u0443\u0442\u0443\u043d\u0430", "name_uz": "Wallis va Futuna", "lat": null, "lng": null}}, {"model": "geo.country", "pk": 247, "fields": {"iso_code": "EH", "iso_code3": "ESH", "name_ru": "\u0417\u0430\u043f\u0430\u0434\u043d\u0430\u044f \u0421\u0430\u0445\u0430\u0440\u0430", "name_uz": "G'arbiy Sahara", "lat": null, "lng": null}}, {"model": "geo.country", "pk": 248, "fields": {"iso_code": "YE", "iso_code3": "YEM", "name_ru": "\u0419\u0435\u043c\u0435\u043d", "name_uz": "Yaman", "lat": null, "lng": null}}, {"model": "geo.country", "pk": 249, "fields": {"iso_code": "ZM", "iso_code3": "ZMB", "name_ru": "\u0417\u0430\u043c\u0431\u0438\u044f", "name_uz": "Zambiya", "lat": null, "lng": null}}, {"model": "geo.country", "pk": 250, "fields": {"iso_code": "ZW", "iso_code3": "ZWE", "name_ru": "\u0417\u0438\u043c\u0431\u0430\u0431\u0432\u0435", "name_uz": "Zimbabve", "lat": null, "lng": null}}, {"model": "geo.country", "pk": 251, "fields": {"iso_code": "12", "iso_code3": "123", "name_ru": "\u0410\u043d\u0433\u043b\u0438\u044f", "name_uz": "Angliya", "lat": "0E-12", "lng": "0E-12"}}, {"model": "geo.region", "pk": 1, "fields": {"name_ru": "\u0410\u043d\u0434\u0438\u0436\u0430\u043d", "name_uz": "Andijon", "country": 239, "ordering": 4, "geo_position": "40.8153561,72.28375000000005"}}, {"model": "geo.region", "pk": 2, "fields": {"name_ru": "\u0411\u0443\u0445\u0430\u0440\u0430", "name_uz": "Buxoro", "country": 239, "ordering": 9, "geo_position": "39.76808269999999,64.45557689999998"}}, {"model": "geo.region", "pk": 3, "fields": {"name_ru": "\u0414\u0436\u0438\u0437\u0430\u0301\u043a", "name_uz": "Jizzah", "country": 239, "ordering": 8, "geo_position": "40.1250439,67.88082429999997"}}, {"model": "geo.region", "pk": 4, "fields": {"name_ru": "\u041d\u0430\u0432\u043e\u0438", "name_uz": "Navoiy", "country": 239, "ordering": 7, "geo_position": "40.103922,65.36883349999994"}}, {"model": "geo.region", "pk": 5, "fields": {"name_ru": "\u041d\u0430\u043c\u0430\u043d\u0433\u0430\u043d", "name_uz": "Namangan", "country": 239, "ordering": 6, "geo_position": "41.0057729,71.64360280000005"}}, {"model": "geo.region", "pk": 6, "fields": {"name_ru": "\u0424\u0435\u0440\u0433\u0430\u043d\u0430", "name_uz": "Farg\u2019ona", "country": 239, "ordering": 5, "geo_position": "40.37338020000001,71.79783329999998"}}, {"model": "geo.region", "pk": 7, "fields": {"name_ru": "\u0421\u044b\u0440\u0434\u0430\u0440\u044c\u044f", "name_uz": "Sirdaryo", "country": 239, "ordering": 12, "geo_position": "40.3863808,68.71549749999997"}}, {"model": "geo.region", "pk": 8, "fields": {"name_ru": "\u0421\u0430\u043c\u0430\u0440\u043a\u0430\u043d\u0434", "name_uz": "Samarqand", "country": 239, "ordering": 3, "geo_position": "39.627012,66.97497309999994"}}, {"model": "geo.region", "pk": 9, "fields": {"name_ru": "\u041a\u0430\u0448\u043a\u0430\u0434\u0430\u0440\u044c\u044f", "name_uz": "Qashqadaryo", "country": 239, "ordering": 10, "geo_position": "38.8986231,66.04635340000004"}}, {"model": "geo.region", "pk": 10, "fields": {"name_ru": "\u0421\u0443\u0440\u0445\u0430\u043d\u0434\u0430\u0440\u044c\u044f", "name_uz": "Surxondaryo", "country": 239, "ordering": 11, "geo_position": "37.9409005,67.57085359999996"}}, {"model": "geo.region", "pk": 11, "fields": {"name_ru": "\u0425\u043e\u0440\u0435\u0437\u043c", "name_uz": "Xorazm", "country": 239, "ordering": 13, "geo_position": "41.3565336,60.856668600000035"}}, {"model": "geo.region", "pk": 12, "fields": {"name_ru": "\u0422\u0430\u0448\u043a\u0435\u043d\u0442\u0441\u043a\u0430\u044f \u043e\u0431\u043b\u0430\u0441\u0442\u044c", "name_uz": "Toshkent viloyati", "country": 239, "ordering": 2, "geo_position": "41.2213234,69.85974060000001"}}, {"model": "geo.region", "pk": 13, "fields": {"name_ru": "\u0413\u043e\u0440\u043e\u0434 \u0422\u0430\u0448\u043a\u0435\u043d\u0442", "name_uz": "Toshkent shahri", "country": 239, "ordering": 1, "geo_position": "41.2994958,69.24007340000003"}}, {"model": "geo.region", "pk": 14, "fields": {"name_ru": "\u0420\u0435\u0441\u043f\u0443\u0431\u043b\u0438\u043a\u0430 \u041a\u0430\u0440\u0430\u043a\u0430\u043b\u043f\u0430\u043a\u0441\u0442\u0430\u043d", "name_uz": "Qoraqalpog\u2019iston Respublikasi", "country": 239, "ordering": 14, "geo_position": "43.8041334,59.445798800000034"}}, {"model": "geo.district", "pk": 1, "fields": {"name_ru": "\u0410\u043d\u0434\u0438\u0436\u0430\u043d\u0441\u043a\u0438\u0439", "name_uz": "Andijon tumani", "country": 239, "region": 1, "ordering": 0, "geo_position": "40.8302819,72.37846790000003"}}, {"model": "geo.district", "pk": 3, "fields": {"name_ru": "\u0410\u0441\u0430\u043a\u0438\u043d\u0441\u043a\u0438\u0439", "name_uz": "Asaka tumani", "country": 239, "region": 1, "ordering": 0, "geo_position": "40.6623515,72.2482225"}}, {"model": "geo.district", "pk": 4, "fields": {"name_ru": "\u0411\u0430\u043b\u044b\u043a\u0447\u0438\u043d\u0441\u043a\u0438\u0439", "name_uz": "Baliqchi tumani", "country": 239, "region": 1, "ordering": 0, "geo_position": "40.856612,71.92827809999994"}}, {"model": "geo.district", "pk": 5, "fields": {"name_ru": "\u0411\u043e\u0437\u0441\u043a\u0438\u0439", "name_uz": "Bo`z tumani", "country": 239, "region": 1, "ordering": 0, "geo_position": "40.6762236,71.90456489999997"}}, {"model": "geo.district", "pk": 6, "fields": {"name_ru": "\u0411\u0443\u043b\u0430\u043a\u0431\u0430\u0448\u0438\u043d\u0441\u043a\u0438\u0439", "name_uz": "Buloqboshi tumani", "country": 239, "region": 1, "ordering": 0, "geo_position": "40.5930577,72.4968189"}}, {"model": "geo.district", "pk": 7, "fields": {"name_ru": "\u0418\u0437\u0431\u0430\u0441\u043a\u0430\u043d\u0441\u043a\u0438\u0439", "name_uz": "Izboskan tumani", "country": 239, "region": 1, "ordering": 0, "geo_position": "40.9096605,72.2600655"}}, {"model": "geo.district", "pk": 8, "fields": {"name_ru": "\u0414\u0436\u0430\u043b\u0430\u043a\u0443\u0434\u0443\u043a\u0441\u043a\u0438\u0439", "name_uz": "Jalaquduq tumani", "country": 239, "region": 1, "ordering": 0, "geo_position": "40.7167,72.3833"}}, {"model": "geo.district", "pk": 9, "fields": {"name_ru": "\u0425\u043e\u0434\u0436\u0430\u0430\u0431\u0430\u0434\u0441\u043a\u0438\u0439", "name_uz": "Xo'jaobod tumani", "country": 239, "region": 1, "ordering": 0, "geo_position": "40.6150821,72.63877000000002"}}, {"model": "geo.district", "pk": 10, "fields": {"name_ru": "\u041a\u0443\u0440\u0433\u0430\u043d\u0442\u0435\u043f\u0438\u043d\u0441\u043a\u0438\u0439", "name_uz": "Qo`rg`ontepa  tumani", "country": 239, "region": 1, "ordering": 0, "geo_position": "40.7695615,72.87517860000003"}}, {"model": "geo.district", "pk": 11, "fields": {"name_ru": "\u041c\u0430\u0440\u0445\u0430\u043c\u0430\u0442\u0441\u043a\u0438\u0439", "name_uz": "Marhamat tumani", "country": 239, "region": 1, "ordering": 0, "geo_position": "40.5239401,72.30743259999997"}}, {"model": "geo.district", "pk": 12, "fields": {"name_ru": "\u0410\u043b\u0442\u044b\u043d\u043a\u0443\u043b\u044c\u0441\u043a\u0438\u0439", "name_uz": "Oltinko`l tumani", "country": 239, "region": 1, "ordering": 0, "geo_position": "40.776945,72.1653076"}}, {"model": "geo.district", "pk": 13, "fields": {"name_ru": "\u041f\u0430\u0445\u0442\u0430\u0430\u0431\u0430\u0434\u0441\u043a\u0438\u0439", "name_uz": "Paxtaobod tumani", "country": 239, "region": 1, "ordering": 0, "geo_position": "40.92675,72.49108100000001"}}, {"model": "geo.district", "pk": 14, "fields": {"name_ru": "\u0428\u0430\u0445\u0440\u0438\u0445\u0430\u043d\u0441\u043a\u0438\u0439", "name_uz": "Shahrixon tumani", "country": 239, "region": 1, "ordering": 0, "geo_position": "40.67565320000001,72.02311250000002"}}, {"model": "geo.district", "pk": 15, "fields": {"name_ru": "\u0423\u043b\u0443\u0433\u043d\u043e\u0440\u0441\u043a\u0438\u0439", "name_uz": "Ulug`nor tumani", "country": 239, "region": 1, "ordering": 0, "geo_position": "40.7867849,71.61986860000002"}}, {"model": "geo.district", "pk": 16, "fields": {"name_ru": "\u0410\u043b\u0430\u0442\u0441\u043a\u0438\u0439", "name_uz": "Olot tumani", "country": 239, "region": 2, "ordering": 0, "geo_position": "39.30522979999999,64.05320030000007"}}, {"model": "geo.district", "pk": 17, "fields": {"name_ru": "\u0411\u0443\u0445\u0430\u0440\u0441\u043a\u0438\u0439", "name_uz": "Buxoro tumani", "country": 239, "region": 2, "ordering": 0, "geo_position": "39.6324587,64.28982109999993"}}, {"model": "geo.district", "pk": 18, "fields": {"name_ru": "\u0413\u0438\u0436\u0434\u0443\u0432\u0430\u043d\u0441\u043a\u0438\u0439", "name_uz": "G`ijduvon tumani", "country": 239, "region": 2, "ordering": 0, "geo_position": "40.5611978,64.81108399999994"}}, {"model": "geo.district", "pk": 19, "fields": {"name_ru": "\u0416\u043e\u043d\u0434\u043e\u0440\u0441\u043a\u0438\u0439", "name_uz": "Jondor tumani", "country": 239, "region": 2, "ordering": 0, "geo_position": "39.9849908,63.67505619999997"}}, {"model": "geo.district", "pk": 20, "fields": {"name_ru": "\u041a\u0430\u0433\u0430\u043d\u0441\u043a\u0438\u0439", "name_uz": "Kogon tumani", "country": 239, "region": 2, "ordering": 0, "geo_position": "39.67440089999999,64.55033759999992"}}, {"model": "geo.district", "pk": 21, "fields": {"name_ru": "\u041a\u0430\u0440\u0430\u043a\u0443\u043b\u044c\u0441\u043a\u0438\u0439 ", "name_uz": "Qorako`l tumani", "country": 239, "region": 2, "ordering": 0, "geo_position": "39.95107489999999,62.92059180000001"}}, {"model": "geo.district", "pk": 22, "fields": {"name_ru": "\u041a\u0430\u0440\u0430\u0443\u043b\u0431\u0430\u0437\u0430\u0440\u0441\u043a\u0438\u0439", "name_uz": "Qorovulbozor tumani", "country": 239, "region": 2, "ordering": 0, "geo_position": "39.43911249999999,64.6214281"}}, {"model": "geo.district", "pk": 23, "fields": {"name_ru": "\u041f\u0435\u0448\u043a\u0443\u043d\u0441\u043a\u0438\u0439 ", "name_uz": "Peshku tumani", "country": 239, "region": 2, "ordering": 0, "geo_position": "40.75695030000001,63.10896580000008"}}, {"model": "geo.district", "pk": 24, "fields": {"name_ru": "\u0420\u043e\u043c\u0438\u0442\u0430\u043d\u0441\u043a\u0438\u0439 ", "name_uz": "Romitan tumani", "country": 239, "region": 2, "ordering": 0, "geo_position": "40.6617611,62.73238839999999"}}, {"model": "geo.district", "pk": 25, "fields": {"name_ru": "\u0428\u0430\u0444\u0438\u0440\u043a\u0430\u043d\u0441\u043a\u0438\u0439", "name_uz": "Shofirkon tumani", "country": 239, "region": 2, "ordering": 0, "geo_position": "40.5344724,64.05320030000007"}}, {"model": "geo.district", "pk": 26, "fields": {"name_ru": "\u0412\u0430\u0431\u043a\u0435\u043d\u0442\u0441\u043a\u0438\u0439", "name_uz": "Vobkent tumani\u200b", "country": 239, "region": 2, "ordering": 0, "geo_position": "40.2109227,64.6214281"}}, {"model": "geo.district", "pk": 27, "fields": {"name_ru": "\u0410\u0440\u043d\u0430\u0441\u0430\u0439\u0441\u043a\u0438\u0439", "name_uz": "Arnasoy tumani", "country": 239, "region": 3, "ordering": 0, "geo_position": "40.55769389999999,67.80928779999999"}}, {"model": "geo.district", "pk": 28, "fields": {"name_ru": "\u0413\u0430\u043b\u043b\u044f\u0430\u0440\u0430\u043b\u044c\u0441\u043a\u0438\u0439", "name_uz": "Baxmal tumani\u200b", "country": 239, "region": 3, "ordering": 0, "geo_position": "39.7781679,67.80928779999999"}}, {"model": "geo.district", "pk": 30, "fields": {"name_ru": "\u0414\u0436\u0438\u0437\u0430\u043a\u0441\u043a\u0438\u0439", "name_uz": "Do'stlik tumani", "country": 239, "region": 3, "ordering": 0, "geo_position": "40.5374294,68.09544589999996"}}, {"model": "geo.district", "pk": 31, "fields": {"name_ru": "\u0424\u0430\u0440\u0438\u0448\u0441\u043a\u0438\u0439", "name_uz": "Forish tumani", "country": 239, "region": 3, "ordering": 0, "geo_position": "40.7011673,67.18944880000004"}}, {"model": "geo.district", "pk": 32, "fields": {"name_ru": "\u0413\u0430\u043b\u043b\u044f\u0430\u0440\u0430\u043b\u044c\u0441\u043a\u0438\u0439", "name_uz": "G`allaorol tumani", "country": 239, "region": 3, "ordering": 0, "geo_position": "40.0625518,67.47549070000002"}}, {"model": "geo.district", "pk": 33, "fields": {"name_ru": "\u0428\u0430\u0440\u043e\u0444 \u0420\u0430\u0448\u0438\u0434\u043e\u0432\u0441\u043a\u0438\u0439 \u0440\u0430\u0439\u043e\u043d", "name_uz": "Sharof Rashidov tumani", "country": 239, "region": 3, "ordering": 0, "geo_position": "40.1121,67.8396"}}, {"model": "geo.district", "pk": 34, "fields": {"name_ru": "\u041c\u0438\u0440\u0437\u0430\u0447\u0443\u043b\u044c\u0441\u043a\u0438\u0439", "name_uz": "Mirzacho'l tumani\u200b", "country": 239, "region": 3, "ordering": 0, "geo_position": "40.7069725,68.0715983"}}, {"model": "geo.district", "pk": 35, "fields": {"name_ru": "\u041f\u0430\u0445\u0442\u0430\u043a\u043e\u0440\u0441\u043a\u0438\u0439", "name_uz": "Paxtakor tumani", "country": 239, "region": 3, "ordering": 0, "geo_position": "40.3631027,68.00005650000003"}}, {"model": "geo.district", "pk": 36, "fields": {"name_ru": "\u042f\u043d\u0433\u0438\u0430\u0431\u0430\u0434\u0441\u043a\u0438\u0439", "name_uz": "Yangiobod tumani", "country": 239, "region": 3, "ordering": 0, "geo_position": "39.9650722,68.76319160000003"}}, {"model": "geo.district", "pk": 37, "fields": {"name_ru": "\u0417\u0430\u0430\u043c\u0438\u043d\u0441\u043a\u0438\u0439", "name_uz": "Zomin tumani", "country": 239, "region": 3, "ordering": 0, "geo_position": "39.9399033,68.42932139999994"}}, {"model": "geo.district", "pk": 38, "fields": {"name_ru": "\u0417\u0430\u0444\u0430\u0440\u0430\u0431\u0430\u0434\u0441\u043a\u0438\u0439", "name_uz": "Zafarobod tumani", "country": 239, "region": 3, "ordering": 0, "geo_position": "40.4075737,67.737754"}}, {"model": "geo.district", "pk": 39, "fields": {"name_ru": "\u0417\u0430\u0440\u0431\u0434\u0430\u0440\u0441\u043a\u0438\u0439", "name_uz": "Zarbdor tumani", "country": 239, "region": 3, "ordering": 0, "geo_position": "40.1671474,68.19083750000004"}}, {"model": "geo.district", "pk": 40, "fields": {"name_ru": "\u041a\u0430\u043d\u0438\u043c\u0435\u0445\u0441\u043a\u0438\u0439", "name_uz": "Konimex tumani", "country": 239, "region": 4, "ordering": 0, "geo_position": "40.2705398,65.14918639999996"}}, {"model": "geo.district", "pk": 41, "fields": {"name_ru": "\u041a\u0430\u0440\u043c\u0430\u043d\u0441\u043a\u0438\u0439 \u0440\u0430\u0439\u043e\u043d", "name_uz": "Karmana tumani\u200b", "country": 239, "region": 4, "ordering": 0, "geo_position": "40.0346031,65.19073090000006"}}, {"model": "geo.district", "pk": 42, "fields": {"name_ru": "\u041a\u044b\u0437\u044b\u043b\u0442\u0435\u043f\u0438\u043d\u0441\u043a\u0438\u0439", "name_uz": "Qiziltepa tumani", "country": 239, "region": 4, "ordering": 0, "geo_position": "39.9033486,64.6214281"}}, {"model": "geo.district", "pk": 43, "fields": {"name_ru": "\u0425\u0430\u0442\u044b\u0440\u0447\u0438\u043d\u0441\u043a\u0438\u0439", "name_uz": "Xatirchi tumani", "country": 239, "region": 4, "ordering": 0, "geo_position": "40.20482,65.95119929999998"}}, {"model": "geo.district", "pk": 44, "fields": {"name_ru": "\u041d\u0430\u0432\u0431\u0430\u0445\u043e\u0440\u0441\u043a\u0438\u0439", "name_uz": "Navbahor tumani", "country": 239, "region": 4, "ordering": 0, "geo_position": "40.24098000000001,65.16699059999996"}}, {"model": "geo.district", "pk": 45, "fields": {"name_ru": "\u041d\u0443\u0440\u0430\u0442\u0438\u043d\u0441\u043a\u0438\u0439", "name_uz": "Nurota tumani", "country": 239, "region": 4, "ordering": 0, "geo_position": "40.5547063,66.14152630000001"}}, {"model": "geo.district", "pk": 46, "fields": {"name_ru": "\u0422\u0430\u043c\u0434\u044b\u043d\u0441\u043a\u0438\u0439 \u0440\u0430\u0439\u043e\u043d", "name_uz": "Tomdi tumani\u200b", "country": 239, "region": 4, "ordering": 0, "geo_position": "41.754552,64.629393"}}, {"model": "geo.district", "pk": 47, "fields": {"name_ru": "\u0423\u0447\u043a\u0443\u0440\u0433\u0430\u043d\u0441\u043a\u0438\u0439", "name_uz": "Uchquduq tumani\u200b", "country": 239, "region": 4, "ordering": 0, "geo_position": "42.66109429999999,63.23846630000003"}}, {"model": "geo.district", "pk": 48, "fields": {"name_ru": "\u0427\u0430\u0440\u0442\u0430\u043a\u0441\u043a\u0438\u0439", "name_uz": "Chortoq tumani", "country": 239, "region": 5, "ordering": 0, "geo_position": "41.1927359,71.8334145"}}, {"model": "geo.district", "pk": 49, "fields": {"name_ru": "\u0427\u0443\u0441\u0442\u0441\u043a\u0438\u0439", "name_uz": "Chust tumani", "country": 239, "region": 5, "ordering": 0, "geo_position": "41.0361462,71.23990370000001"}}, {"model": "geo.district", "pk": 50, "fields": {"name_ru": "\u041a\u0430\u0441\u0430\u043d\u0441\u0430\u0439\u0441\u043a\u0438\u0439", "name_uz": "Kosonsoy tumani", "country": 239, "region": 5, "ordering": 0, "geo_position": "41.2393445,71.52491540000005"}}, {"model": "geo.district", "pk": 51, "fields": {"name_ru": "\u041c\u0438\u043d\u0433\u0431\u0443\u043b\u0430\u043a\u0441\u043a\u0438\u0439", "name_uz": "Mingbuloq tumani\u200b", "country": 239, "region": 5, "ordering": 0, "geo_position": "40.8178608,71.33493220000003"}}, {"model": "geo.district", "pk": 52, "fields": {"name_ru": "\u041d\u0430\u043c\u0430\u043d\u0433\u0430\u043d\u0441\u043a\u0438\u0439", "name_uz": "Namangan tumani\u200b", "country": 239, "region": 5, "ordering": 0, "geo_position": "40.9432905,71.61986860000002"}}, {"model": "geo.district", "pk": 53, "fields": {"name_ru": "\u041d\u0430\u0440\u044b\u043d\u0441\u043a\u0438\u0439", "name_uz": "Norin tumani ", "country": 239, "region": 5, "ordering": 0, "geo_position": "40.9501858,72.02311250000002"}}, {"model": "geo.district", "pk": 54, "fields": {"name_ru": "\u041f\u0430\u043f\u0441\u043a\u0438\u0439", "name_uz": "Pop tumani", "country": 239, "region": 5, "ordering": 0, "geo_position": "40.8814636,71.10325910000006"}}, {"model": "geo.district", "pk": 56, "fields": {"name_ru": "\u0422\u0443\u0440\u0430\u043a\u0443\u0440\u0433\u0430\u043d\u0441\u043a\u0438\u0439", "name_uz": "To'raqo'rg'on tumani", "country": 239, "region": 5, "ordering": 0, "geo_position": "40.9743994,71.45368350000001"}}, {"model": "geo.district", "pk": 57, "fields": {"name_ru": "\u0423\u0447\u043a\u0443\u0440\u0433\u0430\u043d\u0441\u043a\u0438\u0439", "name_uz": "Uchqo'rg'on tumani", "country": 239, "region": 5, "ordering": 0, "geo_position": "41.0435755,72.11791689999995"}}, {"model": "geo.district", "pk": 58, "fields": {"name_ru": "\u0423\u0439\u0447\u0438\u043d\u0441\u043a\u0438\u0439", "name_uz": "Uychi tumani\u200b", "country": 239, "region": 5, "ordering": 0, "geo_position": "41.0054304,71.88084989999993"}}, {"model": "geo.district", "pk": 59, "fields": {"name_ru": "\u042f\u043d\u0433\u0438\u043a\u0443\u0440\u0433\u0430\u043d\u0441\u043a\u0438\u0439", "name_uz": "Yangiqo'rg'on tumani", "country": 239, "region": 5, "ordering": 0, "geo_position": "41.2706211,71.71479509999995"}}, {"model": "geo.district", "pk": 61, "fields": {"name_ru": "\u0417\u0430\u0444\u0430\u0431\u043e\u0440\u0441\u043a\u0438\u0439 \u0440\u0430\u0439\u043e\u043d", "name_uz": "Zafarobod tumani", "country": 239, "region": 5, "ordering": 0, "geo_position": "40.4075737,67.737754"}}, {"model": "geo.district", "pk": 62, "fields": {"name_ru": "\u0410\u043b\u0442\u044b\u0430\u0440\u044b\u043a\u0441\u043a\u0438\u0439", "name_uz": "Oltiariq tumani\u200b", "country": 239, "region": 6, "ordering": 0, "geo_position": null}}, {"model": "geo.district", "pk": 64, "fields": {"name_ru": "\u0411\u0430\u0433\u0434\u0430\u0434\u0441\u043a\u0438\u0439", "name_uz": "Bag'dod tumani", "country": 239, "region": 6, "ordering": 0, "geo_position": "40.504,71.221"}}, {"model": "geo.district", "pk": 65, "fields": {"name_ru": "\u0411\u0435\u0448\u0430\u0440\u044b\u043a\u0441\u043a\u0438\u0439", "name_uz": "Beshariq tumani", "country": 239, "region": 6, "ordering": 0, "geo_position": "40.417,70.616"}}, {"model": "geo.district", "pk": 66, "fields": {"name_ru": "\u0411\u0443\u0432\u0430\u0439\u0434\u0438\u043d\u0441\u043a\u0438\u0439", "name_uz": "Buvayda tumani\u200b", "country": 239, "region": 6, "ordering": 0, "geo_position": "40.6448642,71.121085"}}, {"model": "geo.district", "pk": 67, "fields": {"name_ru": "\u0414\u0430\u043d\u0433\u0430\u0440\u0438\u043d\u0441\u043a\u0438\u0439", "name_uz": "Dang'ara tumani", "country": 239, "region": 6, "ordering": 0, "geo_position": "40.5805,70.917"}}, {"model": "geo.district", "pk": 68, "fields": {"name_ru": "\u0424\u0435\u0440\u0433\u0430\u043d\u0441\u043a\u0438\u0439", "name_uz": "Farg'ona tumani", "country": 239, "region": 6, "ordering": 0, "geo_position": "40.306634,71.69106599999998"}}, {"model": "geo.district", "pk": 69, "fields": {"name_ru": "\u0424\u0443\u0440\u043a\u0430\u0442\u0441\u043a\u0438\u0439", "name_uz": "Furqat tumani", "country": 239, "region": 6, "ordering": 0, "geo_position": "40.5015,70.741"}}, {"model": "geo.district", "pk": 70, "fields": {"name_ru": "\u041a\u0443\u0448\u0442\u0435\u043f\u0438\u043d\u0441\u043a\u0438\u0439", "name_uz": "Qo'shtepa tumani", "country": 239, "region": 6, "ordering": 0, "geo_position": "40.2698,71.9071"}}, {"model": "geo.district", "pk": 71, "fields": {"name_ru": "\u041a\u0443\u0432\u0438\u043d\u0441\u043a\u0438\u0439", "name_uz": "Quva tumani", "country": 239, "region": 6, "ordering": 0, "geo_position": "40.5233,72.0617"}}, {"model": "geo.district", "pk": 72, "fields": {"name_ru": "\u0420\u0438\u0448\u0442\u0430\u043d\u0441\u043a\u0438\u0439", "name_uz": "Rishton tumani", "country": 239, "region": 6, "ordering": 0, "geo_position": "40.385811,71.21614279999994"}}, {"model": "geo.district", "pk": 73, "fields": {"name_ru": "\u0421\u043e\u0445\u0441\u043a\u0438\u0439", "name_uz": "So'x tumani", "country": 239, "region": 6, "ordering": 0, "geo_position": "39.95,71.12"}}, {"model": "geo.district", "pk": 74, "fields": {"name_ru": "\u0422\u0430\u0448\u043b\u0430\u043a\u0441\u043a\u0438\u0439", "name_uz": "Toshloq tumani\u200b", "country": 239, "region": 6, "ordering": 0, "geo_position": "40.527,71.832"}}, {"model": "geo.district", "pk": 75, "fields": {"name_ru": "\u0423\u0447\u043a\u0443\u043f\u0440\u0438\u043a\u0441\u043a\u0438\u0439", "name_uz": "Uchko'prik tumani", "country": 239, "region": 6, "ordering": 0, "geo_position": "40.5111,71.0258"}}, {"model": "geo.district", "pk": 76, "fields": {"name_ru": "\u0423\u0437\u0431\u0435\u043a\u0438\u0441\u0442\u0430\u043d\u0441\u043a\u0438\u0439", "name_uz": "O'zbekiston tumani", "country": 239, "region": 6, "ordering": 0, "geo_position": "40.374,70.803"}}, {"model": "geo.district", "pk": 77, "fields": {"name_ru": "\u042f\u0437\u044a\u044f\u0432\u0430\u043d\u0441\u043a\u0438\u0439", "name_uz": "Yozyovon tumani", "country": 239, "region": 6, "ordering": 0, "geo_position": "40.653056,71.643056"}}, {"model": "geo.district", "pk": 78, "fields": {"name_ru": "\u0410\u043a\u0430\u043b\u0442\u044b\u043d\u0441\u043a\u0438\u0439", "name_uz": "Oqoltin tumani", "country": 239, "region": 7, "ordering": 0, "geo_position": "40.67,68.883"}}, {"model": "geo.district", "pk": 79, "fields": {"name_ru": "\u0411\u0430\u044f\u0443\u0442\u0441\u043a\u0438\u0439", "name_uz": "Boyovut tumani", "country": 239, "region": 7, "ordering": 0, "geo_position": "40.394,68.954"}}, {"model": "geo.district", "pk": 80, "fields": {"name_ru": "\u0413\u0443\u043b\u0438\u0441\u0442\u0430\u043d\u0441\u043a\u0438\u0439", "name_uz": "Guliston tumani", "country": 239, "region": 7, "ordering": 0, "geo_position": "40.524843,68.93011419999993"}}, {"model": "geo.district", "pk": 81, "fields": {"name_ru": "\u0425\u0430\u0432\u0430\u0441\u0442\u0441\u043a\u0438\u0439", "name_uz": "Xovos tumani\u200b", "country": 239, "region": 7, "ordering": 0, "geo_position": "40.22,68.84"}}, {"model": "geo.district", "pk": 82, "fields": {"name_ru": "\u041c\u0438\u0440\u0437\u0430\u0430\u0431\u0430\u0434\u0441\u043a\u0438\u0439", "name_uz": "Mirzaobod tumani\u200b", "country": 239, "region": 7, "ordering": 0, "geo_position": "40.513,68.651"}}, {"model": "geo.district", "pk": 83, "fields": {"name_ru": "\u0421\u0430\u0439\u0445\u0443\u043d\u0430\u0431\u0430\u0434\u0441\u043a\u0438\u0439", "name_uz": "Sayxunobod tumani", "country": 239, "region": 7, "ordering": 0, "geo_position": "40.371,68.265"}}, {"model": "geo.district", "pk": 85, "fields": {"name_ru": "\u0421\u044b\u0440\u0434\u0430\u0440\u044c\u0438\u043d\u0441\u043a\u0438\u0439", "name_uz": "Sirdaryo tumani", "country": 239, "region": 7, "ordering": 0, "geo_position": "40.85,68.664"}}, {"model": "geo.district", "pk": 86, "fields": {"name_ru": "\u041c\u0438\u0440\u0437\u0430\u0430\u0431\u0430\u0434\u0441\u043a\u0438\u0439", "name_uz": "Mirzaobod tumani", "country": 239, "region": 7, "ordering": 0, "geo_position": "40.513,68.651"}}, {"model": "geo.district", "pk": 87, "fields": {"name_ru": "\u0411\u0443\u043b\u0443\u043d\u0433\u0443\u0440\u0441\u043a\u0438\u0439 \u0440\u0430\u0439\u043e\u043d", "name_uz": "Bulung'ur tumani", "country": 239, "region": 8, "ordering": 0, "geo_position": "39.7597725,67.33246020000001"}}, {"model": "geo.district", "pk": 88, "fields": {"name_ru": "\u0418\u0448\u0442\u044b\u0445\u0430\u043d\u0441\u043a\u0438\u0439 \u0440\u0430\u0439\u043e\u043d", "name_uz": "Ishtixon tumani", "country": 239, "region": 8, "ordering": 0, "geo_position": "39.990248,66.57001600000001"}}, {"model": "geo.district", "pk": 89, "fields": {"name_ru": "\u0414\u0436\u0430\u043c\u0431\u0430\u0439\u0441\u043a\u0438\u0439 \u0440\u0430\u0439\u043e\u043d", "name_uz": "Jomboy tumani", "country": 239, "region": 8, "ordering": 0, "geo_position": "39.7788694,67.04645909999999"}}, {"model": "geo.district", "pk": 90, "fields": {"name_ru": "\u041a\u0430\u0442\u0442\u0430\u043a\u0443\u0440\u0433\u0430\u043d\u0441\u043a\u0438\u0439 \u0440\u0430\u0439\u043e\u043d", "name_uz": "Kattaqo'rg'on tumani", "country": 239, "region": 8, "ordering": 0, "geo_position": "40.0065363,66.28431909999995"}}, {"model": "geo.district", "pk": 91, "fields": {"name_ru": "\u041a\u043e\u0448\u0440\u0430\u0431\u0430\u0434\u0441\u043a\u0438\u0439 \u0440\u0430\u0439\u043e\u043d", "name_uz": "Qo'shrabot tumani", "country": 239, "region": 8, "ordering": 0, "geo_position": "40.2465153,66.64409969999997"}}, {"model": "geo.district", "pk": 92, "fields": {"name_ru": "\u041d\u0430\u0440\u043f\u0430\u0439\u0441\u043a\u0438\u0439 \u0440\u0430\u0439\u043e\u043d", "name_uz": "Narpay tumani", "country": 239, "region": 8, "ordering": 0, "geo_position": "39.9234626,65.90362949999997"}}, {"model": "geo.district", "pk": 93, "fields": {"name_ru": "\u041d\u0443\u0440\u0430\u0431\u0430\u0434\u0441\u043a\u0438\u0439 \u0440\u0430\u0439\u043e\u043d", "name_uz": "Nurobod tumani", "country": 239, "region": 8, "ordering": 0, "geo_position": "39.7396915,65.95119929999998"}}, {"model": "geo.district", "pk": 94, "fields": {"name_ru": "\u041e\u043a\u0433\u0430\u0440\u0438\u0439\u0441\u043a\u0438\u0439 \u0440\u0430\u0439\u043e\u043d", "name_uz": "Oqdaryo tumani", "country": 239, "region": 8, "ordering": 0, "geo_position": "39.82156060000001,66.78437600000007"}}, {"model": "geo.district", "pk": 95, "fields": {"name_ru": "\u041f\u0430\u0445\u0442\u0430\u0447\u0438\u0439\u0441\u043a\u0438\u0439 \u0440\u0430\u0439\u043e\u043d", "name_uz": "Paxtachi tumani", "country": 239, "region": 8, "ordering": 0, "geo_position": "39.860252,65.61831819999998"}}, {"model": "geo.district", "pk": 96, "fields": {"name_ru": "\u041f\u0430\u0439\u0430\u0440\u044b\u043a\u0441\u043a\u0438\u0439 \u0440\u0430\u0439\u043e\u043d", "name_uz": "Payariq tumani", "country": 239, "region": 8, "ordering": 0, "geo_position": "39.97302020000001,66.85584419999998"}}, {"model": "geo.district", "pk": 97, "fields": {"name_ru": "\u041f\u0430\u0441\u0442\u0434\u0430\u0440\u0433\u043e\u043c\u0441\u043a\u0438\u0439 \u0440\u0430\u0439\u043e\u043d", "name_uz": "Pastdarg'om tumani", "country": 239, "region": 8, "ordering": 0, "geo_position": "39.6987719,66.6652785"}}, {"model": "geo.district", "pk": 98, "fields": {"name_ru": "\u0421\u0430\u043c\u0430\u0440\u043a\u0430\u043d\u0434\u0441\u043a\u0438\u0439 \u0440\u0430\u0439\u043e\u043d", "name_uz": "Samarqand tumani", "country": 239, "region": 8, "ordering": 0, "geo_position": "39.5778725,66.92731930000002"}}, {"model": "geo.district", "pk": 99, "fields": {"name_ru": "\u0422\u0430\u0439\u043b\u0430\u043a\u0441\u043a\u0438\u0439 \u0440\u0430\u0439\u043e\u043d", "name_uz": "Toyloq tumani\u200b", "country": 239, "region": 8, "ordering": 0, "geo_position": "39.5783563,67.11795110000003"}}, {"model": "geo.district", "pk": 100, "fields": {"name_ru": "\u0423\u0440\u0433\u0443\u0442\u0441\u043a\u0438\u0439 \u0440\u0430\u0439\u043e\u043d", "name_uz": "Urgut tumani", "country": 239, "region": 8, "ordering": 0, "geo_position": "39.4065194,67.14178300000003"}}, {"model": "geo.district", "pk": 101, "fields": {"name_ru": "\u041a\u0430\u0440\u0448\u0438\u043d\u0441\u043a\u0438\u0439 \u0440\u0430\u0439\u043e\u043d", "name_uz": "Qarshi tumani", "country": 239, "region": 9, "ordering": 0, "geo_position": "38.8651946,65.71340090000001"}}, {"model": "geo.district", "pk": 102, "fields": {"name_ru": "\u041a\u0430\u043c\u0430\u0448\u0438\u043d\u0441\u043a\u0438\u0439 \u0440\u0430\u0439\u043e\u043d", "name_uz": "Qamashi tumani", "country": 239, "region": 9, "ordering": 0, "geo_position": "38.7931011,66.4747681"}}, {"model": "geo.district", "pk": 103, "fields": {"name_ru": "\u041a\u0430\u0441\u0430\u043d\u0441\u043a\u0438\u0439 \u0440\u0430\u0439\u043e\u043d", "name_uz": "Koson tumani", "country": 239, "region": 9, "ordering": 0, "geo_position": "39.036944,65.573056"}}, {"model": "geo.district", "pk": 104, "fields": {"name_ru": "\u041a\u0430\u0441\u0431\u0438\u0439\u0441\u043a\u0438\u0439 \u0440\u0430\u0439\u043e\u043d", "name_uz": "Kasbi tumani", "country": 239, "region": 9, "ordering": 0, "geo_position": "38.95923380000001,65.42822009999998"}}, {"model": "geo.district", "pk": 105, "fields": {"name_ru": "\u041a\u0438\u0442\u0430\u0431\u0441\u043a\u0438\u0439 \u0440\u0430\u0439\u043e\u043d", "name_uz": "Kitob tumani", "country": 239, "region": 9, "ordering": 0, "geo_position": "39.19967340000001,67.09411980000004"}}, {"model": "geo.district", "pk": 106, "fields": {"name_ru": "\u041c\u0438\u0440\u0438\u0448\u043a\u043e\u0440\u0441\u043a\u0438\u0439 \u0440\u0430\u0439\u043e\u043d", "name_uz": "Mirishkor tumani", "country": 239, "region": 9, "ordering": 0, "geo_position": "38.90202530000001,65.00085360000003"}}, {"model": "geo.district", "pk": 107, "fields": {"name_ru": "\u041c\u0443\u0431\u0430\u0440\u0435\u043a\u0441\u043a\u0438\u0439 \u0440\u0430\u0439\u043e\u043d", "name_uz": "Muborak tumani", "country": 239, "region": 9, "ordering": 0, "geo_position": "39.25830159999999,65.19073090000006"}}, {"model": "geo.district", "pk": 108, "fields": {"name_ru": "\u041d\u0438\u0448\u0430\u043d\u0441\u043a\u0438\u0439 \u0440\u0430\u0439\u043e\u043d", "name_uz": "Nishon tumani", "country": 239, "region": 9, "ordering": 0, "geo_position": "38.5573845,65.57078520000005"}}, {"model": "geo.district", "pk": 109, "fields": {"name_ru": "\u0428\u0430\u0445\u0440\u0438\u0441\u0430\u0431\u0437\u0441\u043a\u0438\u0439 \u0440\u0430\u0439\u043e\u043d", "name_uz": "Shahrisabz tumani", "country": 239, "region": 9, "ordering": 0, "geo_position": "39.05379780000001,66.82010919999993"}}, {"model": "geo.district", "pk": 110, "fields": {"name_ru": "\u042f\u043a\u043a\u0430\u0431\u0430\u0433\u0441\u043a\u0438\u0439 \u0440\u0430\u0439\u043e\u043d", "name_uz": "Yakkabog' tumani", "country": 239, "region": 9, "ordering": 0, "geo_position": "38.9326143,66.76055480000002"}}, {"model": "geo.district", "pk": 111, "fields": {"name_ru": "\u0427\u0438\u0440\u0430\u043a\u0447\u0438\u043d\u0441\u043a\u0438\u0439 \u0440\u0430\u0439\u043e\u043d", "name_uz": "Chiroqchi tumani", "country": 239, "region": 9, "ordering": 0, "geo_position": "39.1965412,66.33192529999997"}}, {"model": "geo.district", "pk": 112, "fields": {"name_ru": "\u0414\u0435\u0445\u043a\u0430\u043d\u0430\u0431\u0430\u0434\u0441\u043a\u0438\u0439 \u0440\u0430\u0439\u043e\u043d", "name_uz": "Dehqonobod tumani", "country": 239, "region": 9, "ordering": 0, "geo_position": "38.34088179999999,66.565969"}}, {"model": "geo.district", "pk": 113, "fields": {"name_ru": "\u0413\u0443\u0437\u0430\u0440\u0441\u043a\u0438\u0439 \u0440\u0430\u0439\u043e\u043d", "name_uz": "G'uzor tumani", "country": 239, "region": 9, "ordering": 0, "geo_position": "38.5236036,66.14152630000001"}}, {"model": "geo.district", "pk": 114, "fields": {"name_ru": "\u0410\u043d\u0433\u043e\u0440\u0441\u043a\u0438\u0439 \u0440\u0430\u0439\u043e\u043d\u200e", "name_uz": "Angor tumani", "country": 239, "region": 10, "ordering": 0, "geo_position": "37.45,67.15"}}, {"model": "geo.district", "pk": 115, "fields": {"name_ru": "\u0411\u0430\u043d\u0434\u044b\u0445\u0430\u043d\u0441\u043a\u0438\u0439 \u0440\u0430\u0439\u043e\u043d", "name_uz": "Bandixon tumani", "country": 239, "region": 10, "ordering": 0, "geo_position": "37.85,67.3667"}}, {"model": "geo.district", "pk": 116, "fields": {"name_ru": "\u0411\u0430\u0439\u0441\u0443\u043d\u0441\u043a\u0438\u0439 \u0440\u0430\u0439\u043e\u043d\u200e ", "name_uz": "Boysun tumani", "country": 239, "region": 10, "ordering": 0, "geo_position": "38.2,67.2"}}, {"model": "geo.district", "pk": 117, "fields": {"name_ru": "\u0414\u0435\u043d\u0430\u0443\u0441\u043a\u0438\u0439 \u0440\u0430\u0439\u043e\u043d\u200e", "name_uz": "Denov tumani", "country": 239, "region": 10, "ordering": 0, "geo_position": "38.2667,67.8833"}}, {"model": "geo.district", "pk": 118, "fields": {"name_ru": "\u0414\u0436\u0430\u0440\u043a\u0443\u0440\u0433\u0430\u043d\u0441\u043a\u0438\u0439 \u0440\u0430\u0439\u043e\u043d\u200e ", "name_uz": "Jarqo'rg'on tumani", "country": 239, "region": 10, "ordering": 0, "geo_position": "37.5,67.4167"}}, {"model": "geo.district", "pk": 119, "fields": {"name_ru": "\u041a\u0438\u0437\u0438\u0440\u0438\u043a\u0441\u043a\u0438\u0439 \u0440\u0430\u0439\u043e\u043d\u200e ", "name_uz": "Qiziriq tumani", "country": 239, "region": 10, "ordering": 0, "geo_position": "37.6072,67.2862"}}, {"model": "geo.district", "pk": 120, "fields": {"name_ru": "\u041a\u0443\u043c\u043a\u0443\u0440\u0433\u0430\u043d\u0441\u043a\u0438\u0439 \u0440\u0430\u0439\u043e\u043d\u200e", "name_uz": "Qumqo'rg'on tumani", "country": 239, "region": 10, "ordering": 0, "geo_position": "37.8167,67.5833"}}, {"model": "geo.district", "pk": 121, "fields": {"name_ru": "\u041c\u0443\u0437\u0440\u0430\u0431\u0430\u0434\u0441\u043a\u0438\u0439 \u0440\u0430\u0439\u043e\u043d\u200e", "name_uz": "Muzrabot tumani", "country": 239, "region": 10, "ordering": 0, "geo_position": "37.6,68.65"}}, {"model": "geo.district", "pk": 122, "fields": {"name_ru": "\u0410\u043b\u0442\u044b\u043d\u0441\u0430\u0439\u0441\u043a\u0438\u0439 \u0440\u0430\u0439\u043e\u043d\u200e", "name_uz": "Oltinsoy tumani", "country": 239, "region": 10, "ordering": 0, "geo_position": "38.1967,67.695"}}, {"model": "geo.district", "pk": 123, "fields": {"name_ru": "\u0421\u0430\u0440\u0438\u0430\u0441\u0438\u0439\u0441\u043a\u0438\u0439 \u0440\u0430\u0439\u043e\u043d", "name_uz": "Sariosiyo tumani", "country": 239, "region": 10, "ordering": 0, "geo_position": "38.4154989,67.94938219999995"}}, {"model": "geo.district", "pk": 124, "fields": {"name_ru": "\u0428\u0435\u0440\u0430\u0431\u0430\u0434\u0441\u043a\u0438\u0439 \u0440\u0430\u0439\u043e\u043d\u200e ", "name_uz": "Sherobod tumani", "country": 239, "region": 10, "ordering": 0, "geo_position": "37.6833,67.05"}}, {"model": "geo.district", "pk": 125, "fields": {"name_ru": "\u0428\u0443\u0440\u0447\u0438\u043d\u0441\u043a\u0438\u0439 \u0440\u0430\u0439\u043e\u043d\u200e", "name_uz": "Sho'rchi tumani", "country": 239, "region": 10, "ordering": 0, "geo_position": "38,67.7833"}}, {"model": "geo.district", "pk": 126, "fields": {"name_ru": "\u0422\u0435\u0440\u043c\u0435\u0437\u0441\u043a\u0438\u0439 \u0440\u0430\u0439\u043e\u043d\u200e", "name_uz": "Termiz tumani", "country": 239, "region": 10, "ordering": 0, "geo_position": "37.2167,67.2833"}}, {"model": "geo.district", "pk": 127, "fields": {"name_ru": "\u0423\u0437\u0443\u043d\u0441\u043a\u0438\u0439 \u0440\u0430\u0439\u043e\u043d\u200e", "name_uz": "Uzun tumani", "country": 239, "region": 10, "ordering": 0, "geo_position": "38.3192,67.9409"}}, {"model": "geo.district", "pk": 128, "fields": {"name_ru": "\u0411\u0430\u0433\u0430\u0442\u0441\u043a\u0438\u0439 \u0440\u0430\u0439\u043e\u043d", "name_uz": "Bog'ot tumani", "country": 239, "region": 11, "ordering": 0, "geo_position": "41.351814,60.818253"}}, {"model": "geo.district", "pk": 129, "fields": {"name_ru": "\u0413\u0443\u0440\u043b\u0435\u043d\u0441\u043a\u0438\u0439 \u0440\u0430\u0439\u043e\u043d", "name_uz": "Gurlan tumani", "country": 239, "region": 11, "ordering": 0, "geo_position": "41.841688,60.395966"}}, {"model": "geo.district", "pk": 130, "fields": {"name_ru": "\u0425\u0430\u043d\u043a\u0438\u043d\u0441\u043a\u0438\u0439 \u0440\u0430\u0439\u043e\u043d", "name_uz": "Xonqa tumani", "country": 239, "region": 11, "ordering": 0, "geo_position": "41.47,60.78"}}, {"model": "geo.district", "pk": 131, "fields": {"name_ru": "\u0425\u0430\u0437\u0430\u0440\u0430\u0441\u043f\u0441\u043a\u0438\u0439 \u0440\u0430\u0439\u043e\u043d", "name_uz": "Hazorasp tumani", "country": 239, "region": 11, "ordering": 0, "geo_position": "41.316667,61.066667"}}, {"model": "geo.district", "pk": 132, "fields": {"name_ru": "\u0425\u0438\u0432\u0438\u043d\u0441\u043a\u0438\u0439 \u0440\u0430\u0439\u043e\u043d", "name_uz": "Xiva tumani", "country": 239, "region": 11, "ordering": 0, "geo_position": "41.383333,60.366667"}}, {"model": "geo.district", "pk": 133, "fields": {"name_ru": "\u041a\u043e\u0448\u043a\u0443\u043f\u044b\u0440\u0441\u043a\u0438\u0439 \u0440\u0430\u0439\u043e\u043d", "name_uz": "Qo'shko'pir tumani", "country": 239, "region": 11, "ordering": 0, "geo_position": "41.532226,60.35099"}}, {"model": "geo.district", "pk": 134, "fields": {"name_ru": "\u0428\u0430\u0432\u0430\u0442\u0441\u043a\u0438\u0439 \u0440\u0430\u0439\u043e\u043d", "name_uz": "Shovot tumani", "country": 239, "region": 11, "ordering": 0, "geo_position": "41.66,60.29"}}, {"model": "geo.district", "pk": 135, "fields": {"name_ru": "\u0423\u0440\u0433\u0435\u043d\u0447\u0441\u043a\u0438\u0439 \u0440\u0430\u0439\u043e\u043d", "name_uz": "Urganch tumani", "country": 239, "region": 11, "ordering": 0, "geo_position": "41.55,60.64"}}, {"model": "geo.district", "pk": 136, "fields": {"name_ru": "\u042f\u043d\u0433\u0438\u0430\u0440\u044b\u043a\u0441\u043a\u0438\u0439 \u0440\u0430\u0439\u043e\u043d", "name_uz": "Yangiariq tumani", "country": 239, "region": 11, "ordering": 0, "geo_position": "41.327,60.552"}}, {"model": "geo.district", "pk": 137, "fields": {"name_ru": "\u042f\u043d\u0433\u0438\u0431\u0430\u0437\u0430\u0440\u0441\u043a\u0438\u0439 \u0440\u0430\u0439\u043e\u043d", "name_uz": "Yangibozor tumani", "country": 239, "region": 11, "ordering": 0, "geo_position": "41.745,60.571"}}, {"model": "geo.district", "pk": 138, "fields": {"name_ru": "\u0411\u0435\u043a\u0430\u0431\u0430\u0434\u0441\u043a\u0438\u0439 \u0440\u0430\u0439\u043e\u043d", "name_uz": "Bekobod tumani", "country": 239, "region": 12, "ordering": 0, "geo_position": "40.372,69.238"}}, {"model": "geo.district", "pk": 139, "fields": {"name_ru": "\u0411\u043e\u0441\u0442\u0430\u043d\u043b\u044b\u043a\u0441\u043a\u0438\u0439 \u0440\u0430\u0439\u043e\u043d", "name_uz": "Bo'stonliq tumani", "country": 239, "region": 12, "ordering": 0, "geo_position": "41.57,69.77"}}, {"model": "geo.district", "pk": 140, "fields": {"name_ru": "\u0411\u0443\u043a\u0438\u043d\u0441\u043a\u0438\u0439 \u0440\u0430\u0439\u043e\u043d", "name_uz": "Bo'ka tumani", "country": 239, "region": 12, "ordering": 0, "geo_position": "40.812,69.2049"}}, {"model": "geo.district", "pk": 141, "fields": {"name_ru": "\u0427\u0438\u043d\u0430\u0437\u0441\u043a\u0438\u0439 \u0440\u0430\u0439\u043e\u043d", "name_uz": "Chinoz tumani", "country": 239, "region": 12, "ordering": 0, "geo_position": "40.9407,68.7552"}}, {"model": "geo.district", "pk": 142, "fields": {"name_ru": "\u041a\u0438\u0431\u0440\u0430\u0439\u0441\u043a\u0438\u0439 \u0440\u0430\u0439\u043e\u043d", "name_uz": "Qibray tumani", "country": 239, "region": 12, "ordering": 0, "geo_position": "41.3897,69.465"}}, {"model": "geo.district", "pk": 143, "fields": {"name_ru": "\u0410\u0445\u0430\u043d\u0433\u0430\u0440\u0430\u043d\u0441\u043a\u0438\u0439 \u0440\u0430\u0439\u043e\u043d", "name_uz": "Ohangaron tumani", "country": 239, "region": 12, "ordering": 0, "geo_position": "40.9065,69.6353"}}, {"model": "geo.district", "pk": 144, "fields": {"name_ru": "\u0410\u043a\u043a\u0443\u0440\u0433\u0430\u043d\u0441\u043a\u0438\u0439 \u0440\u0430\u0439\u043e\u043d", "name_uz": "Oqqo'rg'on tumani", "country": 239, "region": 12, "ordering": 0, "geo_position": "40.8753,69.0463"}}, {"model": "geo.district", "pk": 145, "fields": {"name_ru": "\u041f\u0430\u0440\u043a\u0435\u043d\u0442\u0441\u043a\u0438\u0439 \u0440\u0430\u0439\u043e\u043d", "name_uz": "Parkent tumani", "country": 239, "region": 12, "ordering": 0, "geo_position": "41.2933,69.6808"}}, {"model": "geo.district", "pk": 146, "fields": {"name_ru": "\u041f\u0441\u043a\u0435\u043d\u0442\u0441\u043a\u0438\u0439 \u0440\u0430\u0439\u043e\u043d", "name_uz": "Piskent tumani", "country": 239, "region": 12, "ordering": 0, "geo_position": "40.8972,69.3503"}}, {"model": "geo.district", "pk": 147, "fields": {"name_ru": "\u041a\u0443\u0439\u0438\u0447\u0438\u0440\u0447\u0438\u043a\u0441\u043a\u0438\u0439 \u0440\u0430\u0439\u043e\u043d", "name_uz": "Quyi chirchiq tumani", "country": 239, "region": 12, "ordering": 0, "geo_position": "40.8564,68.9281"}}, {"model": "geo.district", "pk": 148, "fields": {"name_ru": "\u0423\u0440\u0442\u0430\u0447\u0438\u0440\u0447\u0438\u043a\u0441\u043a\u0438\u0439 \u0440\u0430\u0439\u043e\u043d ", "name_uz": "O'rta Chirchiq tumani", "country": 239, "region": 12, "ordering": 0, "geo_position": "41.0429,69.3574"}}, {"model": "geo.district", "pk": 149, "fields": {"name_ru": "\u042f\u043d\u0433\u0438\u044e\u043b\u044c\u0441\u043a\u0438\u0439 \u0440\u0430\u0439\u043e\u043d", "name_uz": "Yangiyo'l tumani", "country": 239, "region": 12, "ordering": 0, "geo_position": "41.1182,69.0597"}}, {"model": "geo.district", "pk": 150, "fields": {"name_ru": "\u042e\u043a\u043e\u0440\u0438\u0447\u0438\u0440\u0447\u0438\u043a\u0441\u043a\u0438\u0439 \u0440\u0430\u0439\u043e\u043d ", "name_uz": "Yuqori Chirchiq tumani", "country": 239, "region": 12, "ordering": 0, "geo_position": "41.3201,69.5314"}}, {"model": "geo.district", "pk": 151, "fields": {"name_ru": "\u0417\u0430\u043d\u0433\u0438\u0430\u0442\u0438\u043d\u0441\u043a\u0438\u0439 \u0440\u0430\u0439\u043e\u043d", "name_uz": "Zangiota tumani", "country": 239, "region": 12, "ordering": 0, "geo_position": "41.9369,69.6207"}}, {"model": "geo.district", "pk": 152, "fields": {"name_ru": "\u0411\u0435\u043a\u0442\u0435\u043c\u0438\u0440\u0441\u043a\u0438\u0439 \u0440\u0430\u0439\u043e\u043d", "name_uz": "Bektemir \u0442\u0443\u043c\u0430\u043d\u0438", "country": 239, "region": 13, "ordering": 0, "geo_position": "41.230278,69.336667"}}, {"model": "geo.district", "pk": 153, "fields": {"name_ru": "\u0427\u0438\u043b\u0430\u043d\u0437\u0430\u0440\u0441\u043a\u0438\u0439 \u0440\u0430\u0439\u043e\u043d", "name_uz": "Chilonzor tumani", "country": 239, "region": 13, "ordering": 0, "geo_position": "41.272222,69.201667"}}, {"model": "geo.district", "pk": 154, "fields": {"name_ru": "\u042f\u0448\u043d\u0430\u0431\u0430\u0434\u0441\u043a\u0438\u0439 \u0440\u0430\u0439\u043e\u043d", "name_uz": "Yashnobod tumani", "country": 239, "region": 13, "ordering": 0, "geo_position": "41.2862,69.3236"}}, {"model": "geo.district", "pk": 155, "fields": {"name_ru": "\u041c\u0438\u0440\u0430\u0431\u0430\u0434\u0441\u043a\u0438\u0439 \u0440\u0430\u0439\u043e\u043d", "name_uz": "Mirobod tumani", "country": 239, "region": 13, "ordering": 0, "geo_position": "41.276,69.2936"}}, {"model": "geo.district", "pk": 156, "fields": {"name_ru": "\u041c\u0438\u0440\u0437\u043e-\u0423\u043b\u0443\u0433\u0431\u0435\u043a\u0441\u043a\u0438\u0439 \u0440\u0430\u0439\u043e\u043d", "name_uz": "Mirzo Ulug'bek tumani", "country": 239, "region": 13, "ordering": 0, "geo_position": "41.3294,69.3475"}}, {"model": "geo.district", "pk": 157, "fields": {"name_ru": "\u0421\u0435\u0440\u0433\u0435\u043b\u0438\u0439\u0441\u043a\u0438\u0439 \u0440\u0430\u0439\u043e\u043d", "name_uz": "Sergeli tumani", "country": 239, "region": 13, "ordering": 0, "geo_position": "41.2102,69.2318"}}, {"model": "geo.district", "pk": 158, "fields": {"name_ru": "\u0428\u0430\u0439\u0445\u0430\u043d\u0442\u0430\u0445\u0443\u0440\u0441\u043a\u0438\u0439 \u0440\u0430\u0439\u043e\u043d", "name_uz": "Shayxontohur tumani", "country": 239, "region": 13, "ordering": 0, "geo_position": "41.327,69.211"}}, {"model": "geo.district", "pk": 159, "fields": {"name_ru": "\u0410\u043b\u043c\u0430\u0437\u0430\u0440\u0441\u043a\u0438\u0439 \u0440\u0430\u0439\u043e\u043d", "name_uz": "Olmazor tumani", "country": 239, "region": 13, "ordering": 0, "geo_position": "41.364,69.228"}}, {"model": "geo.district", "pk": 160, "fields": {"name_ru": "\u0423\u0447\u0442\u0435\u043f\u0438\u043d\u0441\u043a\u0438\u0439 \u0440\u0430\u0439\u043e\u043d", "name_uz": "Uchtepa tumani", "country": 239, "region": 13, "ordering": 0, "geo_position": "41.297,69.181"}}, {"model": "geo.district", "pk": 161, "fields": {"name_ru": "\u042f\u043a\u043a\u0430\u0441\u0430\u0440\u0430\u0439\u0441\u043a\u0438\u0439 \u0440\u0430\u0439\u043e\u043d", "name_uz": "Yakkasaroy tumani", "country": 239, "region": 13, "ordering": 0, "geo_position": "41.276,69.247"}}, {"model": "geo.district", "pk": 162, "fields": {"name_ru": "\u042e\u043d\u0443\u0441\u0430\u0431\u0430\u0434\u0441\u043a\u0438\u0439 \u0440\u0430\u0439\u043e\u043d", "name_uz": "Yunusobod tumani", "country": 239, "region": 13, "ordering": 0, "geo_position": "41.358,69.299"}}, {"model": "geo.district", "pk": 163, "fields": {"name_ru": "\u0410\u043c\u0443\u0434\u0430\u0440\u044c\u0438\u043d\u0441\u043a\u0438\u0439", "name_uz": "Amudaryo tumani", "country": 239, "region": 14, "ordering": 0, "geo_position": "39.225,64.684"}}, {"model": "geo.district", "pk": 164, "fields": {"name_ru": "\u0411\u0435\u0440\u0443\u043d\u0438\u0439\u0441\u043a\u0438\u0439", "name_uz": "Beruniy tumani", "country": 239, "region": 14, "ordering": 0, "geo_position": "41.685897,60.746567"}}, {"model": "geo.district", "pk": 165, "fields": {"name_ru": "\u0427\u0438\u043c\u0431\u0430\u0439\u0441\u043a\u0438\u0439 ", "name_uz": "Chimboy tumani", "country": 239, "region": 14, "ordering": 0, "geo_position": "42.93,59.77"}}, {"model": "geo.district", "pk": 166, "fields": {"name_ru": " \u042d\u043b\u043b\u0438\u043a\u043a\u0430\u043b\u0438\u043d\u0441\u043a\u0438\u0439", "name_uz": "Ellikqal`a tumani", "country": 239, "region": 14, "ordering": 0, "geo_position": "41.843734,60.909233"}}, {"model": "geo.district", "pk": 167, "fields": {"name_ru": "\u041a\u0435\u0433\u0435\u0439\u043b\u0438\u0439\u0441\u043a\u0438\u0439", "name_uz": "Kegeyli tumani", "country": 239, "region": 14, "ordering": 0, "geo_position": "42.775651,59.610228"}}, {"model": "geo.district", "pk": 168, "fields": {"name_ru": "\u041c\u0443\u0439\u043d\u0430\u043a\u0441\u043a\u0438\u0439", "name_uz": "Mo'ynoq tumani", "country": 239, "region": 14, "ordering": 0, "geo_position": "43.766667,59.033333"}}, {"model": "geo.district", "pk": 169, "fields": {"name_ru": "\u041d\u0443\u043a\u0443\u0441\u0441\u043a\u0438\u0439", "name_uz": "Nukus tumani", "country": 239, "region": 14, "ordering": 0, "geo_position": "42.598889,59.534444"}}, {"model": "geo.district", "pk": 170, "fields": {"name_ru": "\u041a\u0430\u043d\u043b\u044b\u043a\u0443\u043b\u044c\u0441\u043a\u0438\u0439", "name_uz": "Qanliko'l tumani", "country": 239, "region": 14, "ordering": 0, "geo_position": "42.742,59.163"}}, {"model": "geo.district", "pk": 171, "fields": {"name_ru": "\u041a\u0443\u043d\u0433\u0440\u0430\u0434\u0441\u043a\u0438\u0439", "name_uz": "Qo'ng'irot tumani", "country": 239, "region": 14, "ordering": 0, "geo_position": "43.07,58.9"}}, {"model": "geo.district", "pk": 172, "fields": {"name_ru": "\u041a\u0430\u0440\u0430\u0443\u0437\u044f\u043a\u0441\u043a\u0438\u0439", "name_uz": "Qorao'zak tumani\u200b", "country": 239, "region": 14, "ordering": 0, "geo_position": "43.026,60.015"}}, {"model": "geo.district", "pk": 173, "fields": {"name_ru": "\u0428\u0443\u043c\u0430\u043d\u0430\u0439\u0441\u043a\u0438\u0439", "name_uz": "Shumanay tumani", "country": 239, "region": 14, "ordering": 0, "geo_position": "42.62,59.14"}}, {"model": "geo.district", "pk": 174, "fields": {"name_ru": "\u0422\u0430\u0445\u0442\u0430\u043a\u0443\u043f\u044b\u0440\u0441\u043a\u0438\u0439", "name_uz": "Taxtako'pir tumani", "country": 239, "region": 14, "ordering": 0, "geo_position": "43.0225,60.288611"}}, {"model": "geo.district", "pk": 175, "fields": {"name_ru": "\u0422\u0443\u0440\u0442\u043a\u0443\u043b\u044c\u0441\u043a\u0438\u0439", "name_uz": "To'rtko'l tumani", "country": 239, "region": 14, "ordering": 0, "geo_position": "41.55,61"}}, {"model": "geo.district", "pk": 176, "fields": {"name_ru": "\u0425\u043e\u0434\u0436\u0435\u0439\u043b\u0438\u0439\u0441\u043a\u0438\u0439", "name_uz": "Xo'jayli tumani", "country": 239, "region": 14, "ordering": 0, "geo_position": "42.41,59.43"}}]